{"version": 0.6, "generator": "Overpass API 0.7.57.2 48842a1b", "osm3s": {"timestamp_osm_base": "2022-05-16T12:40:46Z", "copyright": "The data included in this document is from www.openstreetmap.org. The data is made available under ODbL."}, "elements": [{"type": "node", "id": 24971137, "lat": 55.6902172, "lon": 12.5639074, "tags": {"amenity": "restaurant", "cuisine": "regional", "fvst:navnelbnr": "114128", "microbrewery": "yes", "name": "N\u00f8rrebro Bryghus Restaurant", "opening_hours": "Mo-Th 12:00-15:00,17:30-22:00; Fr-Sa 12:00-15:00,17:30-23:00", "phone": "+45 35300530", "ref:DK:cvr": "26882451", "ref:DK:cvr:pnummer": "1013398050", "website": "https://noerrebrobryghus.dk/", "wheelchair": "yes", "wheelchair:description": "Adgang via elevator gennem port. Ingen armst\u00f8tte ved toilet", "wikidata": "Q7071526", "wikipedia": "da:N\u00f8rrebro Bryghus"}}, {"type": "node", "id": 279143638, "lat": 55.6856353, "lon": 12.5376527, "tags": {"amenity": "restaurant", "cuisine": "north_vietnamese", "fvst:navnelbnr": "115050", "name": "Viet Nam Nam", "opening_hours": "16:00-23:00", "ref:DK:cvr": "54395957", "ref:DK:cvr:pnummer": "1014630240", "website": "http://www.viet-namnam.dk/", "wheelchair": "no"}}, {"type": "node", "id": 281002969, "lat": 55.690498, "lon": 12.5441844, "tags": {"amenity": "restaurant", "cuisine": "turkish", "fvst:name": "Safir House", "fvst:navnelbnr": "734564", "name": "Safir Kebab", "opening_hours": "Mo-Fr 11:00-24:00; Sa-Su 12:00-24:00", "phone": "+45 35343470", "ref:DK:cvr": "38328220", "ref:DK:cvr:pnummer": "1022088994", "source": "survey", "wheelchair": "limited"}}, {"type": "node", "id": 281998976, "lat": 55.6873787, "lon": 12.5595118, "tags": {"amenity": "restaurant", "cuisine": "persian", "fvst:name": "Spiserestauranten Zafaran", "fvst:navnelbnr": "113842", "name": "Zafran", "opening_hours": "17:00-22:00", "phone": "+45 35349095", "ref:DK:cvr": "27895654", "ref:DK:cvr:pnummer": "1010747011", "website": "http://www.zafran.dk/"}}, {"type": "node", "id": 298723979, "lat": 55.687174, "lon": 12.5621406, "tags": {"amenity": "restaurant", "branch": "N\u00f8rrebro", "cuisine": "burger", "fvst:navnelbnr": "1201273", "name": "Sliders", "opening_hours": "Tu-Sa 11:00-22:00; Su 11:00-21:00", "ref:DK:cvr": "42839752", "ref:DK:cvr:pnummer": "1027748518"}}, {"type": "node", "id": 335975477, "lat": 55.6934573, "lon": 12.547615, "tags": {"amenity": "restaurant", "cuisine": "greek", "fvst:name": "Kreta Gr\u00e6sk Taverna", "fvst:navnelbnr": "116773", "name": "Kreta", "opening_hours": "16:00-24:00", "opening_hours:kitchen": "16:00-22:00", "ref:DK:cvr": "29887306", "ref:DK:cvr:pnummer": "1012654738"}}, {"type": "node", "id": 624518502, "lat": 55.6918541, "lon": 12.5573297, "tags": {"amenity": "restaurant", "award:michelin": "1", "cuisine": "thai", "email": "kiin@kiin.dk", "fvst:navnelbnr": "119559", "name": "Kiin Kiin", "opening_hours": "Mo-Sa 17:30-24:00", "phone": "+45 35357555", "ref:DK:cvr": "29603170", "ref:DK:cvr:pnummer": "1012843557", "reservation": "yes", "stars": "1", "website": "https://www.kiin.dk/", "wikidata": "Q22983542"}}, {"type": "node", "id": 679011950, "lat": 55.6969787, "lon": 12.5458449, "tags": {"amenity": "restaurant", "cuisine": "thai", "fvst:navnelbnr": "768246", "name": "Mae Pen", "opening_hours": "Su-Th 15:00-21:30; Fr-Sa 15:00-22:00", "phone": "+45 35840707", "ref:DK:cvr": "26663504", "ref:DK:cvr:pnummer": "1023615645", "website": "http://www.maepen.dk", "wheelchair": "no"}}, {"type": "node", "id": 706670438, "lat": 55.6854535, "lon": 12.5522738, "tags": {"amenity": "restaurant", "cuisine": "italian", "fvst:navnelbnr": "116799", "name": "Scarpetta", "opening_hours": "17:30-24:00", "phone": "+45 35350808", "ref:DK:cvr": "29206600", "ref:DK:cvr:pnummer": "1015117237", "website": "http://cofoco.dk/da/restauranter/scarpetta-rantzausgade/"}}, {"type": "node", "id": 1029831585, "lat": 55.691122, "lon": 12.556225, "tags": {"amenity": "restaurant", "cuisine": "sushi", "fvst:navnelbnr": "660362", "internet_access": "wlan", "name": "Susu Sushi", "opening_hours": "Mo-Th 16:00-22:00; Fr-Sa 16:00-24:00; Su 16:00-21:30", "outdoor_seating": "yes", "phone": "+45 35 12 12 14", "ref:DK:cvr": "37671533", "ref:DK:cvr:pnummer": "1021403659", "takeaway": "yes", "website": "https://www.susu.dk/"}}, {"type": "node", "id": 1109570661, "lat": 55.690407, "lon": 12.559709, "tags": {"amenity": "restaurant", "branch": "N\u00f8rrebro", "cuisine": "sushi", "fvst:navnelbnr": "116485", "name": "Letz Sushi", "opening_hours": "Mo-Sa 11:30-21:00; Su 16:00-21:00", "ref:DK:cvr": "10107423", "ref:DK:cvr:pnummer": "1012807682", "website": "https://www.letzsushi.dk/restauranter/norrebro/"}}, {"type": "node", "id": 1304586256, "lat": 55.6869993, "lon": 12.558727, "tags": {"amenity": "restaurant", "diet:vegan": "yes", "diet:vegetarian": "yes", "fvst:navnelbnr": "114079", "name": "Kates Joint", "opening_hours": "17:00-22:30; Su 17:00-21:00", "ref:DK:cvr": "34091641", "ref:DK:cvr:pnummer": "1017363952"}}, {"type": "node", "id": 1448400019, "lat": 55.6928738, "lon": 12.551605, "tags": {"amenity": "restaurant", "cuisine": "surf&turf", "fvst:name": "Oyster & Grill", "fvst:navnelbnr": "125199", "name": "Oysters & Grill", "note": "Opening hours are for last seating", "opening_hours": "Mo-Th 17:30-21:30; Fr-Sa 17:30-22:00; Su 17:30-21:15", "operator": "CoFoCo", "phone": "+45 70206171", "ref:DK:cvr": "29206600", "ref:DK:cvr:pnummer": "1016701919", "website": "https://cofoco.dk/da/restauranter/oysters-and-grill/", "wheelchair": "no"}}, {"type": "node", "id": 1775489880, "lat": 55.6889266, "lon": 12.562565, "tags": {"amenity": "restaurant", "branch": "N\u00f8rrebro", "cuisine": "japanese", "fvst:navnelbnr": "562391", "name": "Kung Fu II Izakaya Bar", "opening_hours": "Mo-Sa 17:30+", "phone": "+45 40636976", "ref:DK:cvr": "36412909", "ref:DK:cvr:pnummer": "1019826895", "source": "survey", "website": "http://kungfubar.dk/noerrebro/frontpage/", "wheelchair": "no"}}, {"type": "node", "id": 1828989467, "lat": 55.6936028, "lon": 12.5428999, "tags": {"amenity": "restaurant", "changing_table": "no", "cuisine": "regional", "diet:vegan": "yes", "diet:vegetarian": "yes", "fvst:navnelbnr": "130793", "internet_access": "wlan", "internet_access:fee": "no", "name": "Gr\u00f8d", "opening_hours": "Mo-Fr 07:30-21:00; Sa-Su 09:00-21:00", "outdoor_seating": "yes", "phone": "+45 50585579", "ref:DK:cvr": "33862709", "ref:DK:cvr:pnummer": "1017025399", "takeaway": "yes", "website": "https://groed.com/", "wheelchair": "no"}}, {"type": "node", "id": 1830057767, "lat": 55.689591, "lon": 12.5582548, "tags": {"amenity": "restaurant", "brand": "Bindia", "cuisine": "indian", "delivery": "yes", "description": "Bindia is a chain of Indian food (Indisk Mad) Take Aways in Copenhagen. Amer Sulman is the founder & head chef of Bindia. Here, we cook certified organic Indian food (30-60%) without any additives and preservatives.", "diet:halal": "yes", "diet:meat": "yes", "diet:non-vegetarian": "yes", "diet:organic": "yes", "diet:vegan": "yes", "diet:vegetarian": "yes", "email": "office@bindia.dk", "fvst:fixme": "fvst position missing, fixed from overpassturbo/osak", "fvst:navnelbnr": "966205", "name": "Bindia Elmegade", "name:en": "Bindia Indian Food Take Away N\u00f8rrebro", "opening_hours": "Mo-Su 16:00-21:00", "outdoor_seating": "yes", "phone": "+4535378737", "ref:DK:cvr": "41226447", "ref:DK:cvr:pnummer": "1026547624", "takeaway": "yes", "website": "https://www.bindia.dk/", "wheelchair": "yes"}}, {"type": "node", "id": 1837425226, "lat": 55.6874043, "lon": 12.5467207, "tags": {"amenity": "restaurant", "cuisine": "vietnamese", "diet:vegan": "yes", "diet:vegetarian": "yes", "fvst:navnelbnr": "115811", "name": "Nha Trang", "opening_hours": "Mo-Su 17:00-22:00", "phone": "+45 32161888", "ref:DK:cvr": "31975883", "ref:DK:cvr:pnummer": "1015110585", "takeaway": "yes", "website": "http://www.nhatrang.dk/", "wheelchair": "no"}}, {"type": "node", "id": 2064264133, "lat": 55.686718, "lon": 12.5572861, "tags": {"amenity": "restaurant", "cuisine": "thai", "fvst:navnelbnr": "116800", "name": "Ranee's", "opening_hours": "Mo-Sa 17:00-23:00", "opening_hours:kitchen": "Mo-Sa 17:00-22:00", "phone": "+45 35368505", "ref:DK:cvr": "30297474", "ref:DK:cvr:pnummer": "1013097778", "takeaway": "yes", "website": "http://ranees.dk/"}}, {"type": "node", "id": 2331514862, "lat": 55.688456, "lon": 12.558808, "tags": {"amenity": "restaurant", "cuisine": "indian", "fvst:navnelbnr": "114475", "name": "Tandoori Masala", "opening_hours": "Mo-Th 17:00-22:00; Fr-Su 12:00-22:00", "ref:DK:cvr": "27973469", "ref:DK:cvr:pnummer": "1015027750", "takeaway": "yes", "website": "https://tandoori-masala.dk/", "wheelchair": "limited", "wheelchair:description": "Restauranten har ikke en tilg\u00e6nglig toilett"}}, {"type": "node", "id": 3659148934, "lat": 55.692219, "lon": 12.555909, "tags": {"amenity": "restaurant", "cuisine": "italian;organic", "fvst:name": "B\u00e6st & Mirabelle Guldbergsgade", "fvst:navnelbnr": "549285", "internet_access": "wlan", "name": "B\u00e6st", "opening_hours": "17:00-22:30", "outdoor_seating": "yes", "phone": "+45 35350463", "ref:DK:cvr": "36062193", "ref:DK:cvr:pnummer": "1019763508", "takeaway": "no", "website": "https://baest.dk/", "wheelchair": "yes"}}, {"type": "node", "id": 3714129425, "lat": 55.6965107, "lon": 12.5510082, "tags": {"amenity": "restaurant", "cuisine": "sushi", "fvst:navnelbnr": "509381", "name": "Takii", "opening_hours": "Mo-Su 13:00-22:00", "outdoor_seating": "no", "phone": "+45 38 86 66 66", "ref:DK:cvr": "34209138", "ref:DK:cvr:pnummer": "1017402303", "takeaway": "yes", "website": "https://www.takii.dk/", "wheelchair": "no"}}, {"type": "node", "id": 3771999057, "lat": 55.6885295, "lon": 12.5419871, "tags": {"amenity": "restaurant", "cuisine": "cantonese", "fvst:navnelbnr": "507166", "name": "Fu Wa", "opening_hours": "We-Mo 16:00-22:00", "phone": "+45 38191740", "ref:DK:cvr": "34389004", "ref:DK:cvr:pnummer": "1017595586", "website": "http://www.fuwa.dk/"}}, {"type": "node", "id": 3772666357, "lat": 55.6864878, "lon": 12.5584645, "tags": {"alt_name": "Ahaaa Arabic Cuisine", "amenity": "restaurant", "cuisine": "arab", "fvst:navnelbnr": "780867", "name": "Ahaaa Det Arabiske Madsted", "name:en": "Ahaaa Arabic Cuisine", "phone": "+45 35390085", "ref:DK:cvr": "37287105", "ref:DK:cvr:pnummer": "1022281298", "website": "http://ahaaa.dk/"}}, {"type": "node", "id": 3792233015, "lat": 55.6876013, "lon": 12.5626665, "tags": {"amenity": "restaurant", "cuisine": "latin_american", "fvst:navnelbnr": "544733", "name": "Roberta", "opening_hours": "17:00-24:00", "opening_hours:kitchen": "17:00-22:00", "operator": "Madklubben", "phone": "+45 38414166", "ref:DK:cvr": "35471898", "ref:DK:cvr:pnummer": "1019108607", "website": "https://madklubben.dk/restauranter/roberta-noerrebro/", "wheelchair": "yes"}}, {"type": "node", "id": 3907723431, "lat": 55.6859501, "lon": 12.5528263, "tags": {"amenity": "restaurant", "cuisine": "thai", "email": "info@ayuttaya.net", "fvst:navnelbnr": "907115", "name": "Restaurant Ayuttaya", "opening_hours": "12:00-23:00", "phone": "+45 35373868", "ref:DK:cvr": "40219633", "ref:DK:cvr:pnummer": "1024361876", "website": "https://www.ayuttaya.dk/"}}, {"type": "node", "id": 3907723432, "lat": 55.6878253, "lon": 12.5540103, "tags": {"amenity": "restaurant", "branch": "N\u00f8rrebro", "cuisine": "japanese", "fvst:navnelbnr": "576596", "internet_access": "wlan", "name": "Ramen To Bi\u00edru", "opening_hours": "Mo-Th 12:00-21:00; Fr-Sa 12:00-24:00; Su 12:00-20:00", "operator": "Mikkeler", "phone": "+45 50530222", "ref:DK:cvr": "37002992", "ref:DK:cvr:pnummer": "1020657665", "source": "Bing", "website": "http://mikkeller.dk/location/ramen-to-biiru-2/"}}, {"type": "node", "id": 4006260957, "lat": 55.69691, "lon": 12.53588, "tags": {"amenity": "restaurant", "fvst:navnelbnr": "515272", "name": "Danafrika", "phone": "+45 38199956", "ref:DK:cvr": "25304640", "ref:DK:cvr:pnummer": "1007537685", "takeaway": "yes", "toilets:wheelchair": "no", "website": "http://restaurant.danafrika.dk/", "wheelchair": "no"}}, {"type": "node", "id": 4007924196, "lat": 55.6858794, "lon": 12.5366965, "tags": {"amenity": "restaurant", "cuisine": "indian", "fvst:fixme": "fvst position missing, fixed from overpassturbo/osak", "fvst:name": "SOUTH INDIAN Chettinad Cuisine", "fvst:navnelbnr": "959744", "name": "South Indian", "opening_hours": "17:00-23:00; Sa-Su 12:00-23:00; Mo off", "phone": "+45 81919181", "ref:DK:cvr": "41005386", "ref:DK:cvr:pnummer": "1026086023", "takeaway": "yes", "website": "https://southindian.dk/"}}, {"type": "node", "id": 4007932772, "lat": 55.689275, "lon": 12.5630017, "tags": {"amenity": "restaurant", "fvst:name": "20A Rhone i Ravnsborggade", "fvst:navnelbnr": "535805", "name": "20 a", "opening_hours": "17:00-24:00; Sa 13:00-24:00; Su off", "ref:DK:cvr": "35523464", "ref:DK:cvr:pnummer": "1018863657", "website": "https://www.20a.dk/", "wheelchair": "no"}}, {"type": "node", "id": 4007994173, "lat": 55.6847688, "lon": 12.5405472, "tags": {"amenity": "restaurant", "cuisine": "italian", "fvst:navnelbnr": "645731", "name": "Famosi E Golosi", "opening_hours": "17:00-24:00; Su off", "outdoor_seating": "yes", "phone": "+45 35391891", "ref:DK:cvr": "37300780", "ref:DK:cvr:pnummer": "1020980407", "website": "http://famosiegolosi.dk/"}}, {"type": "node", "id": 4008499558, "lat": 55.6888015, "lon": 12.5551904, "tags": {"amenity": "restaurant", "cuisine": "ethiopian", "fvst:navnelbnr": "921050", "name": "Hidmona Restaurant", "opening_hours": "11:00-23:00", "phone": "+45 29353530", "ref:DK:cvr": "40683194", "ref:DK:cvr:pnummer": "1024901676"}}, {"type": "node", "id": 4231017619, "lat": 55.6919041, "lon": 12.5558833, "tags": {"amenity": "restaurant", "cuisine": "seasonal", "fvst:navnelbnr": "647124", "name": "Spontan", "opening_hours": "18:00-22:30; Su-Mo off", "operator": "BRUS", "phone": "+45 75222200", "ref:DK:cvr": "37586986", "ref:DK:cvr:pnummer": "1021365854", "website": "http://tapperietbrus.dk/spontan/"}}, {"type": "node", "id": 4268070789, "lat": 55.6846825, "lon": 12.5408698, "tags": {"amenity": "restaurant", "cuisine": "sushi", "fvst:navnelbnr": "652946", "name": "Akiba Sushi & Wok", "ref:DK:cvr": "37595977", "ref:DK:cvr:pnummer": "1021404000", "source": "Kaart Ground Survey 2017"}}, {"type": "node", "id": 4430569497, "lat": 55.6968977, "lon": 12.5513956, "tags": {"amenity": "restaurant", "cuisine": "turnkish", "fvst:navnelbnr": "662146", "name": "Mevlana", "opening_hours": "Mo-Su 11:00-22:00", "phone": "+45 35855585", "ref:DK:cvr": "19871401", "ref:DK:cvr:pnummer": "1021322985", "website": "http://mevlana.dk/"}}, {"type": "node", "id": 4922459339, "lat": 55.6966386, "lon": 12.5376545, "tags": {"amenity": "restaurant", "branch": "N\u00f8rrebro", "cuisine": "chinese", "fvst:navnelbnr": "118691", "name": "Kasai 2 N\u00f8rrebro", "ref:DK:cvr": "30349938", "ref:DK:cvr:pnummer": "1013089643", "takeaway": "yes", "website": "https://kasaisushi.dk/norrebro/"}}, {"type": "node", "id": 5631212108, "lat": 55.7022537, "lon": 12.5337588, "tags": {"amenity": "restaurant", "diet:vegan": "yes", "fvst:navnelbnr": "925428", "name": "Efrta", "name:en": "Injera", "ref:DK:cvr": "40934804", "ref:DK:cvr:pnummer": "1025245292"}}, {"type": "node", "id": 5633560204, "lat": 55.6877197, "lon": 12.5470035, "tags": {"amenity": "restaurant", "cuisine": "regional", "fvst:navnelbnr": "737701", "name": "Blaaregn", "opening_hours": "We 17:30-22:00; Th-Sa 17:00-22:00; Su-Tu off", "opening_hours:kitchen": "17:00-22:00; Mo off", "phone": "+45 42701826", "ref:DK:cvr": "38749862", "ref:DK:cvr:pnummer": "1023338560", "website": "http://www.blaaregn.com/", "wheelchair": "no"}}, {"type": "node", "id": 5715669833, "lat": 55.688187, "lon": 12.562868, "tags": {"amenity": "restaurant", "comment": "Upscale buffet", "fvst:navnelbnr": "698553", "name": "Food Club", "opening_hours": "Mo-Sa 17:00+; Su off", "ref:DK:cvr": "35471871", "ref:DK:cvr:pnummer": "1019108542", "website": "http://food-club.dk/", "wikidata": "Q60036259"}}, {"type": "node", "id": 5961663419, "lat": 55.6872816, "lon": 12.547796, "tags": {"amenity": "restaurant", "diet:vegan": "yes", "diet:vegetarian": "yes", "email": "baka@bakabistro.dk", "fvst:navnelbnr": "761498", "name": "Baka d'Busk", "opening_hours": "18:00-24:00; Mo-Tu off", "phone": "+45 31522217", "ref:DK:cvr": "39731827", "ref:DK:cvr:pnummer": "1023804138", "reservation": "required", "website": "https://bakabistro.dk/"}}, {"type": "node", "id": 5996260578, "lat": 55.6879431, "lon": 12.5610146, "tags": {"amenity": "restaurant", "cuisine": "brunch;breakfast;burger;pizza;salads;pasta;sandwiches", "email": "info@caferavnsborg.dk", "fvst:navnelbnr": "647609", "name": "Cafe Ravnsborg", "opening_hours": "Mo-Fr 11:30-24:00; Sa 10:00-24:00; Su 10:00-22:00", "outdoor_seating": "yes", "phone": "+45 32 15 30 30", "ref:DK:cvr": "36028785", "ref:DK:cvr:pnummer": "1019519461", "website": "http://caferavnsborg.dk/"}}, {"type": "node", "id": 6023234685, "lat": 55.6885903, "lon": 12.5622147, "tags": {"alt_name": "Maui Poke", "amenity": "restaurant", "cuisine": "hawaiian", "fvst:fixme": "fvst position missing, fixed from overpassturbo/osak", "fvst:navnelbnr": "778740", "name": "Maui", "ref:DK:cvr": "38979434", "ref:DK:cvr:pnummer": "1022891525", "website": "http://www.mauicph.com/"}}, {"type": "node", "id": 6700526583, "lat": 55.6900527, "lon": 12.5550218, "tags": {"amenity": "restaurant", "cuisine": "seafood", "fvst:navnelbnr": "806508", "name": "Hooked", "opening_hours": "12:00-22:00", "phone": "+45 30705922", "ref:DK:cvr": "37306568", "ref:DK:cvr:pnummer": "1024755467", "website": "https://gethooked.dk/"}}, {"type": "node", "id": 6771962805, "lat": 55.6851293, "lon": 12.5525188, "tags": {"amenity": "restaurant", "cuisine": "ramen", "fvst:navnelbnr": "908661", "name": "Men-O Ramen", "opening_hours": "12:00-22:00", "ref:DK:cvr": "40273824", "ref:DK:cvr:pnummer": "1024424355", "website": "https://menoramen.dk/"}}, {"type": "node", "id": 6771962806, "lat": 55.6853112, "lon": 12.557058, "tags": {"alt_name": "Poporoya", "amenity": "restaurant", "cuisine": "sushi", "fvst:navnelbnr": "906140", "name": "Popo Asian", "opening_hours": "16:00-22:00; Sa-Su 12:00-22:00", "phone": "+45 35351000", "ref:DK:cvr": "40545778", "ref:DK:cvr:pnummer": "1024736144", "takeaway": "yes", "website": "https://poporoya.dk/"}}, {"type": "node", "id": 7183310145, "lat": 55.6868108, "lon": 12.5599782, "tags": {"amenity": "restaurant", "cuisine": "regional", "fvst:navnelbnr": "915569", "name": "Restaurant Safari", "phone": "+45 27622222", "ref:DK:cvr": "40553029", "ref:DK:cvr:pnummer": "1024745453", "website": "https://www.restaurantsafari.dk/"}}, {"type": "node", "id": 7297000783, "lat": 55.688638, "lon": 12.555093, "tags": {"amenity": "restaurant", "cuisine": "ethiopian", "fvst:navnelbnr": "924761", "name": "Restaurant Mesob", "phone": "+45 41175206", "ref:DK:cvr": "40988378", "ref:DK:cvr:pnummer": "1025317692", "website": "https://www.mosob.dk/"}}, {"type": "node", "id": 7504133151, "lat": 55.7019697, "lon": 12.5499138, "tags": {"alt_name": "Village Take Away", "amenity": "restaurant", "cuisine": "indian", "fvst:navnelbnr": "940787", "name": "Village Tandoor & Grill", "opening_hours": "Mo-Su 11:00-21:00", "ref:DK:cvr": "38401432", "ref:DK:cvr:pnummer": "1024907348", "takeaway": "only", "website": "https://www.villagetandoorgrill.dk/"}}, {"type": "node", "id": 7791555711, "lat": 55.6939222, "lon": 12.5424684, "tags": {"amenity": "restaurant", "cuisine": "pizza", "fvst:navnelbnr": "549060", "internet_access": "wlan", "internet_access:fee": "customers", "name": "Neighborhood", "opening_hours": "Mo-Th 16:00-22:00; Fr 17:00-01:00; Sa 12:00-01:00; Su 12:00-22:00", "opening_hours:kitchen": "Mo-Th 17:00-21:30; Fr 17:00-22:00; Sa 12:00-16:00,17:00-22:00; Su 12:00-16:00,17:00-21:00", "phone": "+45 69806860", "ref:DK:cvr": "36049650", "ref:DK:cvr:pnummer": "1023771019", "website": "http://www.neighbourhood.dk"}}, {"type": "node", "id": 8081405595, "lat": 55.686257, "lon": 12.550733, "tags": {"amenity": "restaurant", "diet:vegetarian": "no", "fvst:fixme": "fvst position missing, fixed from overpassturbo/osak", "fvst:navnelbnr": "950916", "name": "Stefanos La Fabrica", "opening_hours": "Mo-Fr 10:00-22:00; Sa,Su 09:00-22:00", "phone": "+45 41800016", "ref:DK:cvr": "41420529", "ref:DK:cvr:pnummer": "1025909883", "wheelchair": "limited"}}, {"type": "node", "id": 8582838546, "lat": 55.6932511, "lon": 12.5434247, "tags": {"amenity": "restaurant", "cuisine": "seafood", "fvst:navnelbnr": "118804", "name": "Silberbauers Bistro", "phone": "+45 36966593", "ref:DK:cvr": "32669182", "ref:DK:cvr:pnummer": "1017600199"}}, {"type": "node", "id": 8668638328, "lat": 55.6848825, "lon": 12.5400231, "tags": {"amenity": "restaurant", "cuisine": "chinese", "name": "Nan Yuan", "ref:DK:cvr": "37134449", "ref:DK:cvr:pnummer": "1020802371"}}, {"type": "node", "id": 9152669142, "lat": 55.690785, "lon": 12.5647665, "tags": {"amenity": "restaurant", "cuisine": "thai", "fvst:navnelbnr": "1111377", "name": "JED", "opening_hours": "17:00-23:00; Su-Tu off", "ref:DK:cvr": "39080737", "ref:DK:cvr:pnummer": "1023012177", "takeaway": "yes", "website": "https://jedthai.dk/"}}, {"type": "node", "id": 9155476574, "lat": 55.6930162, "lon": 12.5433073, "tags": {"amenity": "restaurant", "fvst:name": "Restaurant Rel\u00e6", "fvst:navnelbnr": "117704", "name": "Koan Rel\u00e6", "ref:DK:cvr": "32669182", "ref:DK:cvr:pnummer": "1015758658", "website": "https://www.koancph.dk/"}}, {"type": "node", "id": 9438189411, "lat": 55.6870442, "lon": 12.5478519, "tags": {"amenity": "restaurant", "capacity": "8", "cuisine": "gourmet;chinese;cantonese", "fvst:navnelbnr": "1110948", "name": "Jatak", "opening_hours": "17:00-23:00; Mo-We off", "ref:DK:cvr": "41325003", "ref:DK:cvr:pnummer": "1025780198", "website": "https://www.jatakcph.com/"}}, {"type": "node", "id": 9546090781, "lat": 55.7012459, "lon": 12.5510939, "tags": {"amenity": "restaurant", "cuisine": "italian", "fvst:navnelbnr": "1118144", "name": "Casamadre", "ref:DK:cvr": "42596442", "ref:DK:cvr:pnummer": "1027620139"}}, {"type": "node", "id": 9550726606, "lat": 55.6881393, "lon": 12.5546282, "tags": {"amenity": "restaurant", "cuisine": "italian", "fvst:navnelbnr": "566996", "name": "Bar Pasta", "ref:DK:cvr": "36926708", "ref:DK:cvr:pnummer": "1020495940", "website": "https://www.barpasta.dk/"}}, {"type": "node", "id": 9618862257, "lat": 55.6909676, "lon": 12.5593416, "tags": {"amenity": "restaurant", "cuisine": "thai", "fvst:name": "Thaipan anno 2017", "fvst:navnelbnr": "1218334", "name": "Thaipan", "opening_hours": "16:00-21:00; Th-Sa 16:00-22:00", "phone": "+45 35360505", "ref:DK:cvr": "38704206", "ref:DK:cvr:pnummer": "1022515361", "website": "https://www.thaipan.dk/"}}]}