{"version": 0.6, "generator": "Overpass API 0.7.57 93a4d346", "osm3s": {"timestamp_osm_base": "2022-05-16T10:40:10Z", "copyright": "The data included in this document is from www.openstreetmap.org. The data is made available under ODbL."}, "elements": [{"type": "node", "id": 25869217, "lat": 55.6864894, "lon": 12.5874331, "tags": {"amenity": "bar", "fvst:navnelbnr": "501959", "name": "Black Swan", "note": "Beer bar, 14 taps.", "opening_hours": "Mo-We 15:00-01:00, Th-Sa 15:00-02:00, Su 15:00-23:00", "ref:DK:cvr": "33947178", "ref:DK:cvr:pnummer": "1017132365", "smoking": "outside", "toilets:wheelchair": "no", "website": "http://www.blackswanbar.dk/", "wheelchair": "no"}}, {"type": "node", "id": 279472194, "lat": 55.6763998, "lon": 12.5733293, "tags": {"amenity": "bar", "facebook": "https://www.facebook.com/dropinnmusic/", "fvst:navnelbnr": "795821", "name": "Drop Inn", "opening_hours": "Mo,Tu 14:00-24:00, We,Th 14:00-02:00, Fr,Sa 14:00-03:00; Su off", "outdoor_seating": "yes", "phone": "+45 33112404", "ref:DK:cvr": "38578553", "ref:DK:cvr:pnummer": "1022372145", "toilets": "yes", "website": "https://drop-inn.dk/", "wheelchair": "limited"}}, {"type": "node", "id": 279697161, "lat": 55.7047957, "lon": 12.5619073}, {"type": "node", "id": 279901270, "lat": 55.6786581, "lon": 12.5325728, "tags": {"amenity": "bar", "fvst:navnelbnr": "719930", "name": "The Old Irish Pub", "payment:credit_cards": "yes", "phone": "+45 5189 7713", "ref:DK:cvr": "35028692", "ref:DK:cvr:pnummer": "1022691070", "toilets": "yes", "website": "https://oldirishpub.dk/", "wheelchair": "yes"}}, {"type": "node", "id": 281998525, "lat": 55.6864556, "lon": 12.5579695, "tags": {"amenity": "bar", "fvst:navnelbnr": "567872", "internet_access": "wlan", "name": "Bl\u00e5g\u00e5rds Apotek", "opening_hours": "Mo-Th 14:00-02:00, Fr-Su 12:00-02:00", "ref:DK:cvr": "31896738", "ref:DK:cvr:pnummer": "1014980128", "website": "http://kroteket.dk/"}}, {"type": "node", "id": 300410990, "lat": 55.6810855, "lon": 12.5804647, "tags": {"amenity": "bar", "fvst:navnelbnr": "113153", "name": "The Moose", "ref:DK:cvr": "20634596", "ref:DK:cvr:pnummer": "1003747399", "smoking": "yes", "website": "https://www.themoosebar.dk/"}}, {"type": "node", "id": 413370338, "lat": 55.6810813, "lon": 12.5798685, "tags": {"alt_name": "Sjus", "amenity": "bar", "fvst:navnelbnr": "119840", "name": "Sjus Bar", "ref:DK:cvr": "31374057", "website": "https://sjusbar.dk/"}}, {"type": "node", "id": 427561448, "lat": 55.7019604, "lon": 12.5583462}, {"type": "node", "id": 427561450, "lat": 55.7019469, "lon": 12.5588374}, {"type": "node", "id": 427561453, "lat": 55.702077, "lon": 12.5584797}, {"type": "node", "id": 664252429, "lat": 55.6979594, "lon": 12.5449822, "tags": {"amenity": "bar", "check_date": "2020-12-17", "name": "Karrusellen", "opening_hours": "09:00-02:00", "smoking": "yes"}}, {"type": "node", "id": 664252431, "lat": 55.6999384, "lon": 12.5467477, "tags": {"amenity": "bar", "fvst:navnelbnr": "734612", "name": "Det Gamle Sted", "opening_hours:signed": "no", "phone": "+45 35826224", "ref:DK:cvr": "34272778", "smoking": "yes", "website": "https://cafe-det-gamle-sted.business.site/"}}, {"type": "node", "id": 687312669, "lat": 55.6772854, "lon": 12.5693007, "tags": {"amenity": "bar", "fvst:navnelbnr": "118492", "name": "Caf\u00e8 Guldhornene", "payment:bitcoin": "yes", "ref:DK:cvr": "31933307", "ref:DK:cvr:pnummer": "1017064254"}}, {"type": "node", "id": 687313455, "lat": 55.6773855, "lon": 12.5694568, "tags": {"amenity": "bar", "fvst:navnelbnr": "115897", "name": "Heidi's Bier Bar", "payment:bitcoin": "yes", "ref:DK:cvr": "27647952", "ref:DK:cvr:pnummer": "1010459180", "website": "https://www.heidisbierbar.dk"}}, {"type": "node", "id": 687314560, "lat": 55.6779133, "lon": 12.5705635, "tags": {"amenity": "bar", "fvst:name": "THE AUSTRALIAN BAR K\u00d8BENHAVN", "fvst:navnelbnr": "112416", "name": "The Australien Bar", "ref:DK:cvr": "17890670", "ref:DK:cvr:pnummer": "1015169296", "website": "https://www.abar.dk/"}}, {"type": "node", "id": 687314916, "lat": 55.6779717, "lon": 12.5707085, "tags": {"amenity": "bar", "fvst:navnelbnr": "661116", "name": "La Boucherie", "ref:DK:cvr": "35043519", "ref:DK:cvr:pnummer": "1018333305"}}, {"type": "node", "id": 687796690, "lat": 55.6822933, "lon": 12.5804369, "tags": {"amenity": "bar", "fvst:navnelbnr": "735352", "name": "Trykbar", "ref:DK:cvr": "39127946", "ref:DK:cvr:pnummer": "1023081624"}}, {"type": "node", "id": 704974846, "lat": 55.6864665, "lon": 12.5500587, "tags": {"amenity": "bar", "fvst:navnelbnr": "577983", "name": "Tjili Pop 2", "opening_hours": "Su,Mo 09:00-01:00, Tu,We 09:00-02:00, Th 09:00-03:00, Fr,Sa 09:00-04:00", "ref:DK:cvr": "29550964", "ref:DK:cvr:pnummer": "1004630426", "website": "https://www.tjili.dk/", "wheelchair": "no", "wikidata": "Q18552345"}}, {"type": "node", "id": 727436488, "lat": 55.6721637, "lon": 12.5636709, "tags": {"amenity": "bar", "contact:phone": "+45 33216090", "fvst:navnelbnr": "113401", "name": "Jernbanecafeen", "ref:DK:cvr": "17125273", "ref:DK:cvr:pnummer": "1001227682", "website": "http://www.jernbanecafeen.dk/", "wheelchair": "no", "wikidata": "Q23596044"}}, {"type": "node", "id": 738164312, "lat": 55.6987309, "lon": 12.5812029, "tags": {"amenity": "bar", "fvst:navnelbnr": "803700", "name": "Holstein Bodega", "opening_hours": "08:00-02:00", "outdoor_seating": "yes", "phone": "+45 35265321", "ref:DK:cvr": "30623126", "ref:DK:cvr:pnummer": "1018356356", "smoking": "yes", "website": "http://www.holstein-bodega.dk/"}}, {"type": "node", "id": 818898743, "lat": 55.6719575, "lon": 12.5575483, "tags": {"amenity": "bar", "contact:instagram": "https://www.instagram.com/mikkellerbarvik", "fvst:fixme": "fvst position missing, fixed from overpassturbo/osak", "fvst:navnelbnr": "576202", "min_age": "18", "name": "Mikkeller Bar Viktoriagade", "opening_hours": "Mo-Th 14:00-23:00; Fr 14:00-00:00; Sa 12:00-00:00; Su 14:00-22:00", "phone": "+45 33310415", "ref:DK:cvr": "32297757", "ref:DK:cvr:pnummer": "1019053373", "website": "https://mikkeller.com/locations/mikkeller-viktoriagade", "wheelchair": "no"}}, {"type": "node", "id": 870440497, "lat": 55.6736923, "lon": 12.5560021, "tags": {"amenity": "bar", "fvst:name": "Kennedys irish Bar A Kennedy & T Tynan", "fvst:navnelbnr": "111889", "name": "Kennedys Irish Bar", "opening_hours": "Mo-Su 12:00-02:00", "phone": "+45 33315249", "ref:DK:cvr": "25715640", "ref:DK:cvr:pnummer": "1008021429", "wheelchair": "no"}}, {"type": "node", "id": 888340138, "lat": 55.673194, "lon": 12.5612145, "tags": {"alt_name": "Scandic Cube Cafe", "amenity": "bar", "fvst:navnelbnr": "116204", "name": "Cube", "operator": "Scandic Webers", "phone": "+45 33311432", "ref:DK:cvr": "12596774", "wheelchair": "no"}}, {"type": "node", "id": 893968817, "lat": 55.6764611, "lon": 12.5713541, "tags": {"amenity": "bar", "fvst:navnelbnr": "114140", "name": "Villa Vino", "ref:DK:cvr": "27509894", "ref:DK:cvr:pnummer": "1003186208"}}, {"type": "node", "id": 893993391, "lat": 55.6779554, "lon": 12.5807439, "tags": {"alt_name": "Kirstens Cocktail - og Vinbar", "amenity": "bar", "fvst:navnelbnr": "113255", "name": "K Cocktailbar", "opening_hours": "16:00-02:00; Su off", "ref:DK:cvr": "26677637", "ref:DK:cvr:pnummer": "1009190097", "wheelchair": "no"}}, {"type": "node", "id": 898920410, "lat": 55.6815566, "lon": 12.5842922, "tags": {"access:covid19": "no", "amenity": "bar", "name": "Natcafeen", "website": "https://natcafeen.dk/"}}, {"type": "node", "id": 898930207, "lat": 55.6821592, "lon": 12.5822351, "tags": {"amenity": "bar", "fvst:navnelbnr": "114335", "name": "Andy's Bar", "opening_hours": "16:00+;Fr 14:00+", "phone": "+45 33120646", "ref:DK:cvr": "34737398", "ref:DK:cvr:pnummer": "1018068555", "smoking": "yes", "website": "https://andysbar.dk/", "wheelchair": "no"}}, {"type": "node", "id": 898933924, "lat": 55.6823061, "lon": 12.5816691, "tags": {"amenity": "bar", "fvst:navnelbnr": "114647", "name": "Cucaracha Bar", "ref:DK:cvr": "31625246", "ref:DK:cvr:pnummer": "1014786631", "wheelchair": "no"}}, {"type": "node", "id": 898939487, "lat": 55.6818705, "lon": 12.5825994, "tags": {"alt_name": "Basement Bar", "amenity": "bar", "fvst:navnelbnr": "119134", "name": "Basement", "ref:DK:cvr": "29838925", "wheelchair": "no"}}, {"type": "node", "id": 898941047, "lat": 55.6812694, "lon": 12.5810346, "tags": {"alt_name": "L.A. Tequila Bar", "amenity": "bar", "fvst:navnelbnr": "117312", "name": "LaBar", "ref:DK:cvr": "27048021", "website": "https://www.latequilabar.dk/byer/kobenhavn/", "wheelchair": "no"}}, {"type": "node", "id": 898950333, "lat": 55.6812502, "lon": 12.5794331, "tags": {"amenity": "bar", "fvst:navnelbnr": "113304", "name": "Cafe Rex", "opening_hours": "We 21:00-24:00; Th 00:00-03:00,21:00-24:00; Fr 00:00-03:00,18:00-24:00; Sa 00:00-05:00,22:00-24:00; Su 00:00-05:00", "phone": "+45 33 93 18 18", "ref:DK:cvr": "26780454", "ref:DK:cvr:pnummer": "1009313326", "shop": "alcohol", "website": "http://www.caferex.dk/"}}, {"type": "node", "id": 898951399, "lat": 55.6810096, "lon": 12.5786867, "tags": {"amenity": "bar", "fvst:navnelbnr": "113043", "name": "Bo-Bi Bar", "opening_hours": "Mo-Su 12:00-24:00", "ref:DK:cvr": "27989136", "ref:DK:cvr:pnummer": "1010726073"}}, {"type": "node", "id": 898953156, "lat": 55.6805487, "lon": 12.5771236, "tags": {"alt_name": "Hornsleth Bar", "amenity": "bar", "fvst:fixme": "fvst position missing, fixed from overpassturbo/osak", "fvst:navnelbnr": "666955", "min_age": "23", "name": "Hornsleth", "opening_hours": "Fr-Sa 22:00-05:00", "phone": "+45 31737308", "ref:DK:cvr": "32141099", "ref:DK:cvr:pnummer": "1017108979", "website": "http://hornslethbar.dk/kobenhavn/"}}, {"type": "node", "id": 898964645, "lat": 55.6800207, "lon": 12.5746175, "tags": {"alt_name": "Surf Bar", "amenity": "bar", "fvst:navnelbnr": "117912", "name": "Den glade Gris", "ref:DK:cvr": "28515626", "ref:DK:cvr:pnummer": "1011226384"}}, {"type": "node", "id": 899019395, "lat": 55.671677, "lon": 12.5547467, "tags": {"amenity": "bar", "cuisine": "wine", "fvst:navnelbnr": "116093", "name": "Vinbaren Vesterbro Torv", "phone": "+45 21408527", "ref:DK:cvr": "18050285", "ref:DK:cvr:pnummer": "1015008055", "website": "http://vinbarenvesterbrotorv.dk/", "wheelchair": "no"}}, {"type": "node", "id": 978057337, "lat": 55.6837431, "lon": 12.56518, "tags": {"amenity": "bar", "fvst:navnelbnr": "114549", "name": "Bibendum", "opening_hours": "Mo-Th 17:00-23:00; Fr-Sa 16:00-23:00; Su off", "opening_hours:kitchen": "16:00-22:00; Su", "phone": "+45 33330774", "ref:DK:cvr": "26925142", "ref:DK:cvr:pnummer": "1009597197", "website": "https://bibendum.dk/", "wheelchair": "no"}}, {"type": "node", "id": 1029964787, "lat": 55.7048538, "lon": 12.5620603}, {"type": "node", "id": 1029964797, "lat": 55.7046744, "lon": 12.5620736}, {"type": "node", "id": 1029964825, "lat": 55.7048358, "lon": 12.5620878}, {"type": "node", "id": 1029964828, "lat": 55.7046759, "lon": 12.5620054}, {"type": "node", "id": 1029964833, "lat": 55.704754, "lon": 12.5619073}, {"type": "node", "id": 1029964860, "lat": 55.7047385, "lon": 12.5619237}, {"type": "node", "id": 1029964887, "lat": 55.7047726, "lon": 12.5618964}, {"type": "node", "id": 1029964889, "lat": 55.7048577, "lon": 12.5619132}, {"type": "node", "id": 1029964895, "lat": 55.7047159, "lon": 12.562008}, {"type": "node", "id": 1029964898, "lat": 55.7047196, "lon": 12.5619793}, {"type": "node", "id": 1029964927, "lat": 55.7047961, "lon": 12.5618937}, {"type": "node", "id": 1029964930, "lat": 55.7047268, "lon": 12.5619502}, {"type": "node", "id": 1029964937, "lat": 55.7048477, "lon": 12.5620802}, {"type": "node", "id": 1141451331, "lat": 55.7059235, "lon": 12.5789264, "tags": {"alt_name": "Bubbles Bar", "amenity": "bar", "drink:cocktail": "served", "fvst:navnelbnr": "718046", "indoor_seating": "yes", "name": "Bubbles", "note": "Champagne and Cocktails", "old_name": "Kitjn", "opening_hours": "18:00-03:00, We-Th 16:00-24:00, Su-Tu off", "opening_hours:signed": "no", "outdoor_seating": "yes", "phone": "+45 31250099", "ref:DK:cvr": "38623524", "smoking": "no", "website": "http://www.bubblesbar.dk/", "wheelchair": "no"}}, {"type": "node", "id": 1200013193, "lat": 55.6958705, "lon": 12.5444608, "tags": {"amenity": "bar", "check_date": "2020-12-09", "name": "VinBaren", "toilets:wheelchair": "no", "wheelchair": "no"}}, {"type": "node", "id": 1200105789, "lat": 55.6880152, "lon": 12.5606456, "tags": {"amenity": "bar", "email": "cocktail@kassen.dk", "fvst:navnelbnr": "115544", "name": "Kassen", "opening_hours": "We 20:00-02:00; Th 20:00-03:00; Fr 16:00-04:00; Sa 20:00-04:00", "phone": "+4542572200", "ref:DK:cvr": "30987578", "ref:DK:cvr:pnummer": "1013740387", "website": "http://kassen.dk", "wheelchair": "limited"}}, {"type": "node", "id": 1278093389, "lat": 55.7141553, "lon": 12.5717271, "tags": {"alt_name": "PERIKLES FANBAR", "amenity": "bar", "fvst:name": "Perickles", "fvst:navnelbnr": "717167", "name": "Perikles Bodega", "outdoor_seating": "yes", "ref:DK:cvr": "32567576"}}, {"type": "node", "id": 1305262264, "lat": 55.6876448, "lon": 12.5594632, "tags": {"amenity": "bar", "check_date": "2020-12-16", "diet:vegan": "yes", "diet:vegetarian": "yes", "name": "Harbo Bar", "opening_hours": "Mo-Th 08:30-00:00, Fr 08:30-02:00, Sa 09:30-02:00, Su 09:30-23:00"}}, {"type": "node", "id": 1324781959, "lat": 55.6787751, "lon": 12.5803397, "tags": {"amenity": "bar", "fvst:navnelbnr": "116955", "internet_access": "wlan", "name": "Toga Vinstue", "opening_hours": "Mo-We 14:00-03:00, Th 14:00-04:00, Fr 12:00-05:00, Sa 11:00-05:00, Su 16:00-22:00, Jan 1 off", "payment:bitcoin": "yes", "phone": "+45 33122126", "ref:DK:cvr": "33034342", "ref:DK:cvr:pnummer": "1016117656", "smoking": "yes", "website": "http://www.toga.dk/", "wikidata": "Q16324763", "wikipedia": "da:Toga Vinstue"}}, {"type": "node", "id": 1439744394, "lat": 55.6738595, "lon": 12.5646995, "tags": {"amenity": "bar", "fvst:navnelbnr": "126382", "name": "Library Bar", "ref:DK:cvr": "32302610", "ref:DK:cvr:pnummer": "1016234822", "wheelchair": "yes"}}, {"type": "node", "id": 1443471679, "lat": 55.686467, "lon": 12.5876904, "tags": {"amenity": "bar", "fvst:navnelbnr": "721942", "name": "Borgerkroen", "ref:DK:cvr": "11929087", "ref:DK:cvr:pnummer": "1021908807", "smoking": "yes", "wheelchair": "no"}}, {"type": "node", "id": 1462189989, "lat": 55.6845001, "lon": 12.5674404, "tags": {"amenity": "bar", "check_date": "2020-12-15", "name": "Funchs Vinstue", "phone": "+45 33115445", "smoking": "yes", "website": "https://www.funchs55.com/"}}, {"type": "node", "id": 1462221515, "lat": 55.6839289, "lon": 12.5684807, "tags": {"amenity": "bar", "fvst:name": "Venato Funchs", "fvst:navnelbnr": "755637", "name": "Jagtstuen", "ref:DK:cvr": "38737635", "smoking": "yes", "wheelchair": "no"}}, {"type": "node", "id": 1473047867, "lat": 55.6991351, "lon": 12.5539198, "tags": {"alt_name": "Tagensborg Bodega", "amenity": "bar", "fvst:navnelbnr": "717224", "name": "Tagensborg", "opening_hours": "Mo-We 12:00-24:00, Th 12:00-03:00, Fr,Sa 12:00-05:00, Su 12:00-22:00", "ref:DK:cvr": "36975210", "wheelchair": "no"}}, {"type": "node", "id": 1497198641, "lat": 55.6812131, "lon": 12.5837207, "tags": {"amenity": "bar", "fvst:navnelbnr": "526791", "name": "Pal\u00e6 Bar", "ref:DK:cvr": "29732469", "ref:DK:cvr:pnummer": "1012555527"}}, {"type": "node", "id": 1497201304, "lat": 55.6817658, "lon": 12.5837032, "tags": {"amenity": "bar", "fvst:navnelbnr": "119026", "name": "Da Vinci", "ref:DK:cvr": "29326703", "ref:DK:cvr:pnummer": "1012032966", "wheelchair": "no"}}, {"type": "node", "id": 1584391960, "lat": 55.6972572, "lon": 12.544631, "tags": {"alt_name": "Dispensary Whisky & Beer", "amenity": "bar", "check_date": "2020-12-15", "fvst:navnelbnr": "708014", "name": "Dispensary", "ref:DK:cvr": "38223208", "source": "https://www.openstreetmap.org/note/1474593", "wheelchair": "limited"}}, {"type": "node", "id": 1591124412, "lat": 55.682421, "lon": 12.571505, "tags": {"amenity": "bar", "fvst:navnelbnr": "551146", "name": "N\u00f8rreport Bodega", "ref:DK:cvr": "35654305", "ref:DK:cvr:pnummer": "1019100231"}}, {"type": "node", "id": 1596733408, "lat": 55.6781756, "lon": 12.5686176, "tags": {"amenity": "bar", "fvst:navnelbnr": "671045", "name": "Masken Bar", "ref:DK:cvr": "28861524", "ref:DK:cvr:pnummer": "1011517451"}}, {"type": "node", "id": 1596735570, "lat": 55.6783036, "lon": 12.568967, "tags": {"amenity": "bar", "fvst:navnelbnr": "501284", "name": "The Log Lady", "ref:DK:cvr": "33346549", "ref:DK:cvr:pnummer": "1016639458", "wheelchair": "no"}}, {"type": "node", "id": 1596737699, "lat": 55.6786141, "lon": 12.5693401, "tags": {"amenity": "bar", "email": "info@atlasbar.dk", "fvst:navnelbnr": "111874", "internet_access": "wlan", "level": "-1", "name": "Atlas Bar", "opening_hours": "12:00-22:00", "phone": "+4533150352", "ref:DK:cvr": "12874774", "ref:DK:cvr:pnummer": "1000460560", "website": "https://atlasbar.dk/", "wheelchair": "no"}}, {"type": "node", "id": 1596792063, "lat": 55.6779253, "lon": 12.5711363, "tags": {"alt_name": "Retro Disco", "amenity": "bar", "fvst:navnelbnr": "714363", "name": "Retro Bar", "ref:DK:cvr": "36695331", "ref:DK:cvr:pnummer": "1020267077"}}, {"type": "node", "id": 1605261363, "lat": 55.7038318, "lon": 12.5569429}, {"type": "node", "id": 1605261367, "lat": 55.7038933, "lon": 12.5571326}, {"type": "node", "id": 1605261387, "lat": 55.7038957, "lon": 12.5568229}, {"type": "node", "id": 1605261391, "lat": 55.7039805, "lon": 12.5571064}, {"type": "node", "id": 1612954850, "lat": 55.6756583, "lon": 12.5735337, "tags": {"amenity": "bar", "description": "live music every night", "fvst:name": "MOJO APS", "fvst:navnelbnr": "112592", "name": "Mojo Blues Bar", "ref:DK:cvr": "18752204", "smoking": "yes", "website": "https://www.mojo.dk/", "wheelchair": "yes"}}, {"type": "node", "id": 1628406934, "lat": 55.681166, "lon": 12.580734, "tags": {"amenity": "bar", "fvst:navnelbnr": "112508", "name": "Wessels Kro", "ref:DK:cvr": "28858396", "ref:DK:cvr:pnummer": "1011511305", "smoking": "separated"}}, {"type": "node", "id": 1628413117, "lat": 55.6811342, "lon": 12.5816783, "tags": {"amenity": "bar", "cuisine": "wine", "fvst:navnelbnr": "505985", "name": "Kj\u00e6r & Sommerfeldt", "ref:DK:cvr": "30531620", "ref:DK:cvr:pnummer": "1014812462", "shop": "alcohol", "website": "https://www.kjaersommerfeldt.dk/butik-k%C3%B8benhavn", "wheelchair": "yes"}}, {"type": "node", "id": 1628427956, "lat": 55.6819319, "lon": 12.5801525, "tags": {"amenity": "bar", "fvst:navnelbnr": "119817", "name": "R Vinbar", "ref:DK:cvr": "33956541", "ref:DK:cvr:pnummer": "1017164321"}}, {"type": "node", "id": 1629984199, "lat": 55.6806961, "lon": 12.5884807, "tags": {"amenity": "bar", "fvst:navnelbnr": "533543", "name": "Hong Kong Night Club", "ref:DK:cvr": "14156895", "wheelchair": "no"}}, {"type": "node", "id": 1775543925, "lat": 55.6901037, "lon": 12.5624942, "tags": {"amenity": "bar", "fvst:name": "THE BARKING DOG TRADING COMPANY", "fvst:navnelbnr": "509410", "name": "The Barking Dog", "opening_hours": "Su 16:00-24:00; Tu-Th 16:00-24:00, Fr-Sa 16:00-02:00", "phone": "+45 35361600", "ref:DK:cvr": "33779518", "ref:DK:cvr:pnummer": "1016978678", "source": "survey", "website": "http://www.thebarkingdog.dk/"}}, {"type": "node", "id": 1778854834, "lat": 55.6891027, "lon": 12.5624146, "tags": {"amenity": "bar", "fvst:navnelbnr": "713399", "name": "Kind of Blue", "opening_hours": "Mo-We 16:00-24:00, Th-Sa 16:00-02:00, Su off", "ref:DK:cvr": "37812609", "ref:DK:cvr:pnummer": "1021526084", "source": "survey", "website": "https://www.kindofblue.dk/", "wheelchair": "no"}}, {"type": "node", "id": 1828989455, "lat": 55.693679, "lon": 12.5427877, "tags": {"alt_name": "Terroiristen vinbar", "amenity": "bar", "fvst:navnelbnr": "118574", "name": "Terroiristen", "opening_hours": "Tu-Th 12:00-18:00; Fr 12:00-19:00; Sa 11:00-18:00", "ref:DK:cvr": "31052262", "ref:DK:cvr:pnummer": "1014685169", "website": "https://www.terroiristen.dk/", "wheelchair": "no"}}, {"type": "node", "id": 1905725548, "lat": 55.6966311, "lon": 12.5808134, "tags": {"alt_name": "Vinstuen Femmeren", "amenity": "bar", "fvst:navnelbnr": "116239", "name": "Femmeren Jazzv\u00e6rtshus", "opening_hours": "16:00-01:00, Sa 15:00-01:00, Su 15:00-24:00", "phone": "+45 35261958", "ref:DK:cvr": "31317207", "smoking": "yes", "website": "https://www.femmeren.dk/", "wheelchair": "limited"}}, {"type": "node", "id": 2008179830, "lat": 55.6859481, "lon": 12.5523945, "tags": {"amenity": "bar", "fvst:navnelbnr": "509492", "name": "Dupong", "outdoor_seating": "no", "ref:DK:cvr": "33864922", "ref:DK:cvr:pnummer": "1017038652", "smoking": "no"}}, {"type": "node", "id": 2014805166, "lat": 55.6858796, "lon": 12.5523207, "tags": {"alt_name": "\u00d8lsnedkernes Klub Bar", "amenity": "bar", "contact:facebook": "https://www.facebook.com/olsnedkeren/", "contact:instagram": "https://www.instagram.com/olsnedkeren/", "drink:beer": "served", "email": "baren@olsnedkeren.dk", "fvst:navnelbnr": "505533", "min_age": "18", "name": "\u00d8lsnedkeren", "opening_hours": "Mo-We 14:00-24:00, Th-Sa 14:00-02:00", "outdoor_seating": "no", "ref:DK:cvr": "33276249", "ref:DK:cvr:pnummer": "1016491892", "website": "https://olsnedkeren.dk/", "wheelchair": "limited"}}, {"type": "node", "id": 2036051372, "lat": 55.6818289, "lon": 12.5633186, "tags": {"alt_name": "Smuggler Imports", "amenity": "bar", "fvst:navnelbnr": "761398", "internet_access": "wlan", "name": "Gorki", "opening_hours": "Tu-Sa 15:00-24:00", "phone": "+45 40562193", "product": "beer", "ref:DK:cvr": "38904205", "shop": "alcohol", "website": "http://www.smuggler.dk/", "wheelchair": "no"}}, {"type": "node", "id": 2102142194, "lat": 55.7048999, "lon": 12.5776915, "tags": {"amenity": "bar", "fvst:navnelbnr": "573060", "name": "TAP10", "opening_hours": "Tu-Th 14:00-24:00, Fr-Sa 14:00-02:00; week 30-31 off", "outdoor_seating": "yes", "phone": "+45 61724487", "ref:DK:cvr": "25499646", "ref:DK:cvr:pnummer": "1017082651", "smoking": "no", "website": "http://bunkerbeer.dk/14/index.php/da/olbaren-tap10", "wheelchair": "no"}}, {"type": "node", "id": 2102146391, "lat": 55.7058942, "lon": 12.5786014, "tags": {"amenity": "bar", "fvst:name": "Connie b", "fvst:navnelbnr": "754101", "indoor_seating": "yes", "name": "X-pressen", "opening_hours": "Sa 12:00-22:00, Su 12:00-20:00, Mo-Fr 11:00-01:00", "outdoor_seating": "yes", "ref:DK:cvr": "20521031", "smoking": "yes", "wheelchair": "no"}}, {"type": "node", "id": 2120271818, "lat": 55.7063599, "lon": 12.5833171, "tags": {"amenity": "bar", "fvst:fixme": "fvst:no_pos", "fvst:navnelbnr": "529031", "indoor_seating": "yes", "name": "Bassinet", "opening_hours": "PH,Mo-Su 09:00-24:00", "outdoor_seating": "no", "ref:DK:cvr": "27382363", "ref:DK:cvr:pnummer": "1018524275", "smoking": "yes", "source": "Fugro (2005)", "wheelchair": "no"}}, {"type": "node", "id": 2120271819, "lat": 55.7068296, "lon": 12.5857491, "tags": {"alt_name": "FRIHAVNEN", "amenity": "bar", "fvst:navnelbnr": "553683", "name": "Frihavnskroen", "opening_hours": "Mo-We 12:00-22:00; Th 12:00-24:00; Fr 12:00-02:00; Sa 11:00-02:00; Su 11:00-20:00", "ref:DK:cvr": "34709343", "smoking": "yes", "source": "Fugro (2005)", "wheelchair": "no"}}, {"type": "node", "id": 2121839393, "lat": 55.6751567, "lon": 12.5476811, "tags": {"amenity": "bar", "contact:email": "vinstue90@mail.dk", "fvst:navnelbnr": "112834", "name": "Vinstue 90", "opening_hours": "Su-We 11:00-01:00, Th-Sa 11:00-02:00", "phone": "+45 33318490", "ref:DK:cvr": "26452961", "ref:DK:cvr:pnummer": "1008932537", "smoking": "yes", "source": "Fugro (2005)", "wheelchair": "no", "wikidata": "Q12341137"}}, {"type": "node", "id": 2156654226, "lat": 55.6744834, "lon": 12.5512432, "tags": {"amenity": "bar", "email": "amigobar@os.dk", "fvst:navnelbnr": "111881", "name": "Amigo Bar", "phone": "+45 3321 4915", "ref:DK:cvr": "14951881", "ref:DK:cvr:pnummer": "1000834597", "smoking": "yes"}}, {"type": "node", "id": 2165235074, "lat": 55.681795, "lon": 12.5709215, "tags": {"amenity": "bar", "fvst:name": "MC KO APS", "fvst:navnelbnr": "576972", "name": "The Globe", "ref:DK:cvr": "20042877", "ref:DK:cvr:pnummer": "1004279501", "website": "https://www.the-globe.dk/"}}, {"type": "node", "id": 2229062918, "lat": 55.6946671, "lon": 12.5432048, "tags": {"amenity": "bar", "food": "yes", "fvst:navnelbnr": "522017", "internet_access": "wlan", "internet_access:fee": "no", "internet_access:ssid": "Mikkeller_Friends", "name": "Mikkeller & Friends", "opening_hours": "Fr-Sa 12:00-24:00; Su 12:00-22:00; Mo-Th 14:00-24:00", "phone": "+45 35 83 10 20", "ref:DK:cvr": "34895023", "ref:DK:cvr:pnummer": "1018153633", "website": "https://mikkeller.com/locations/mikkeller-and-friends", "wheelchair": "no"}}, {"type": "node", "id": 2338189050, "lat": 55.6733563, "lon": 12.5517701}, {"type": "node", "id": 2338189058, "lat": 55.6732491, "lon": 12.5516686}, {"type": "node", "id": 2338189065, "lat": 55.6732081, "lon": 12.55178}, {"type": "node", "id": 2338189077, "lat": 55.673354, "lon": 12.5516616}, {"type": "node", "id": 2343690852, "lat": 55.6962633, "lon": 12.5750656, "tags": {"amenity": "bar", "fvst:navnelbnr": "658922", "name": "S\u00f8ernes \u00d8lbar", "ref:DK:cvr": "36717009", "ref:DK:cvr:pnummer": "1020329935", "smoking": "no", "website": "http://soernesoelbar.dk"}}, {"type": "node", "id": 2523038593, "lat": 55.6777292, "lon": 12.5784331, "tags": {"amenity": "bar", "drink:cocktail": "served", "fvst:navnelbnr": "543600", "name": "Little Green Door", "opening_hours": "16:00-01:00,Fr-Sa 16:00-02:00,Su-Tu off", "phone": "+45 31737354", "ref:DK:cvr": "35256008", "ref:DK:cvr:pnummer": "1018548247", "website": "http://madamchu.dk"}}, {"type": "node", "id": 2543973526, "lat": 55.6801316, "lon": 12.5761475, "tags": {"age_limit": "23", "amenity": "bar", "fvst:navnelbnr": "732139", "name": "The Jane", "note": "15% discount on all cocktails!", "opening_hours": "Th 20:00+; Fr 16:00+; Sa 20:00+", "payment:bitcoin": "yes", "phone": "+45 69 69 60 00", "ref:DK:cvr": "35485708", "ref:DK:cvr:pnummer": "1022243507", "website": "https://www.thejane.dk/", "yelp": "http://www.yelp.com/biz/the-jane-k%C3%B8benhavn-k"}}, {"type": "node", "id": 2599935006, "lat": 55.6766934, "lon": 12.5766194, "tags": {"alt_name": "Ruby Cocktailbar", "amenity": "bar", "facebook": "https://www.facebook.com/rubykbh", "fvst:navnelbnr": "119264", "name": "Ruby", "opening_hours": "Mo-Sa 16:00-02:00, Su 18:00-02:00", "phone": "+45 33931203", "ref:DK:cvr": "32290140", "website": "https://rby.dk/"}}, {"type": "node", "id": 2837243901, "lat": 55.6781561, "lon": 12.5698566, "tags": {"amenity": "bar", "fvst:navnelbnr": "115459", "name": "Floss", "ref:DK:cvr": "13220034", "ref:DK:cvr:pnummer": "1020634983", "smoking": "yes", "wheelchair": "limited"}}, {"type": "node", "id": 3312007936, "lat": 55.6731971, "lon": 12.551672}, {"type": "node", "id": 3312007937, "lat": 55.6731994, "lon": 12.5517806}, {"type": "node", "id": 3372385621, "lat": 55.6846268, "lon": 12.5675944, "tags": {"alt_name": "Barkowski Bar", "amenity": "bar", "check_date": "2020-12-15", "fvst:navnelbnr": "521282", "name": "Barkowski", "opening_hours": "Tu-We 16:00-24:00, Th 14:00-02:00, Fr 14:00-05:00, Sa 13:00-05:00, Su 14:00-02:00", "phone": "+45 30 66 85 34", "ref:DK:cvr": "34904693", "ref:DK:cvr:pnummer": "1018195212", "website": "https://barkowskibar.dk/"}}, {"type": "node", "id": 3404320523, "lat": 55.67991, "lon": 12.52178, "tags": {"alt_name": "Caf\u00e9 Sekseren", "amenity": "bar", "fvst:name": "Caf\u00e9 Sekseren (Caf\u00e9 6eren)", "fvst:navnelbnr": "763354", "name": "Caf\u00e96'eren", "ref:DK:cvr": "39780097", "smoking": "yes"}}, {"type": "node", "id": 3404321298, "lat": 55.671218, "lon": 12.5604749, "tags": {"amenity": "bar", "fvst:navnelbnr": "115610", "name": "Spunk Bar", "ref:DK:cvr": "24214583", "ref:DK:cvr:pnummer": "1006414760"}}, {"type": "node", "id": 3404321338, "lat": 55.67592, "lon": 12.56586, "tags": {"amenity": "bar", "fvst:navnelbnr": "762392", "name": "The Shamrock Inn", "opening_hours": "Mo 15:00-02:00,Tu 15:00-01:01; We 15:00-02:00,Th 15:00-03:00,Fr 12:30-05:00,Sa 13:30-05:00, Su 15:00-01:00", "ref:DK:cvr": "34594791", "ref:DK:cvr:pnummer": "1023922211", "website": "https://theshamrockinn.dk/"}}, {"type": "node", "id": 3404342223, "lat": 55.6740948, "lon": 12.5499759, "tags": {"amenity": "bar", "fvst:navnelbnr": "119665", "name": "Falernum", "ref:DK:cvr": "31178851", "ref:DK:cvr:pnummer": "1016162252", "wheelchair": "no"}}, {"type": "node", "id": 3404342229, "lat": 55.6749832, "lon": 12.519322, "tags": {"alt_name": "Gravens Rand", "amenity": "bar", "check_date": "2021-10-29", "fvst:navnelbnr": "714239", "name": "Fasan Bodega", "opening_hours": "11:00-02:00", "ref:DK:cvr": "38747479", "smoking": "yes"}}, {"type": "node", "id": 3473014569, "lat": 55.6876177, "lon": 12.5469304, "tags": {"amenity": "bar", "check_date": "2020-12-13", "drink:beer": "yes", "name": "K\u00f8lsters Tolv Haner", "name:es": "K\u00f8lsters Tolv Haner", "opening_hours": "Mo-Su 15:00-24:00", "phone": "+45 32209484", "wheelchair": "no"}}, {"type": "node", "id": 3529010440, "lat": 55.6731981, "lon": 12.5517168}, {"type": "node", "id": 3656367927, "lat": 55.701174, "lon": 12.551194, "tags": {"amenity": "bar", "fvst:navnelbnr": "715239", "name": "Kl\u00f8r Dame", "opening_hours": "Mo-Su 09:00-24:00", "outdoor_seating": "yes", "ref:DK:cvr": "30623126", "ref:DK:cvr:pnummer": "1018356356", "smoking": "yes", "wheelchair": "limited"}}, {"type": "node", "id": 3772456953, "lat": 55.6793579, "lon": 12.5749273, "tags": {"amenity": "bar", "fvst:navnelbnr": "543663", "name": "B\u00e6st", "opening_hours": "Th 20:00-02:00, Fr-Sa 18:00-05:00", "ref:DK:cvr": "34476519", "ref:DK:cvr:pnummer": "1017757292", "website": "http://xn--bst-yla.dk/"}}, {"type": "node", "id": 3773087372, "lat": 55.6798954, "lon": 12.5777113, "tags": {"amenity": "bar", "fvst:navnelbnr": "556537", "name": "Balderdash", "opening_hours": "We 17:00-01:00, Th 17:00-02:00, Fr 17:00-02:00, Sa 17:00-02:00", "phone": "+45 53107885", "ref:DK:cvr": "35851992", "ref:DK:cvr:pnummer": "1019390221"}}, {"type": "node", "id": 3773088919, "lat": 55.6776418, "lon": 12.5780759, "tags": {"amenity": "bar", "fvst:navnelbnr": "714992", "name": "The Bird and the Churchkey", "opening_hours": "Tu-We 16:00-01:00, Th 16:00-02:00, Fr-Sa 16:00-04:00", "ref:DK:cvr": "31946212", "ref:DK:cvr:pnummer": "1015029982", "website": "https://thebird.dk/"}}, {"type": "node", "id": 4007452347, "lat": 55.6878755, "lon": 12.5702372, "tags": {"access": "private", "amenity": "bar", "description": "studentercafe", "name": "Jacques D.", "ref:DK:cvr": "17331531", "website": "http://jacquesd.dk/"}}, {"type": "node", "id": 4007480897, "lat": 55.678419, "lon": 12.554611, "tags": {"amenity": "bar", "fvst:navnelbnr": "761790", "name": "Salon 39", "ref:DK:cvr": "39713039", "ref:DK:cvr:pnummer": "1023781855"}}, {"type": "node", "id": 4007924197, "lat": 55.6875478, "lon": 12.5470834, "tags": {"amenity": "bar", "fvst:navnelbnr": "721138", "name": "Tolv Haner", "opening_hours": "Fr,Sa 14:00-01:00, Mo-Th 15:00-24:00, Su 14:00-22:00", "ref:DK:cvr": "38749862", "ref:DK:cvr:pnummer": "1022585289", "wheelchair": "no"}}, {"type": "node", "id": 4011854861, "lat": 55.6787957, "lon": 12.5722433, "tags": {"amenity": "bar", "fvst:name": "Gringo Bar", "fvst:navnelbnr": "714364", "name": "Gringo Bar", "ref:DK:cvr": "38311484", "ref:DK:cvr:pnummer": "1022069779"}}, {"type": "node", "id": 4012815277, "lat": 55.675205, "lon": 12.586764, "tags": {"amenity": "bar", "fvst:name": "Kayak Bar Kajen Drift ApS", "fvst:navnelbnr": "734284", "name": "Kayak Bar", "opening_hours": "Jun-Aug", "phone": "+45 3049 0013", "ref:DK:cvr": "39120992", "ref:DK:cvr:pnummer": "1023073826", "website": "https://kayakbar.dk/"}}, {"type": "node", "id": 4015755825, "lat": 55.6788802, "lon": 12.5700342, "tags": {"amenity": "bar", "fvst:navnelbnr": "924220", "name": "Born 12/ Jailhouse CPH", "note": "gay", "phone": "+45 33152255", "ref:DK:cvr": "39980665", "ref:DK:cvr:pnummer": "1024081784", "website": "https://jailhousecph.dk/"}}, {"type": "node", "id": 4016613453, "lat": 55.6736038, "lon": 12.5660687, "tags": {"amenity": "bar", "fvst:navnelbnr": "535576", "name": "Nimb Bar", "ref:DK:cvr": "10404916", "ref:DK:cvr:pnummer": "1018808885", "wheelchair": "yes"}}, {"type": "node", "id": 4072657122, "lat": 55.6811399, "lon": 12.5830687, "tags": {"amenity": "bar", "fvst:navnelbnr": "636689", "name": "Lou Lou"}}, {"type": "node", "id": 4170928389, "lat": 55.6983406, "lon": 12.5503495, "tags": {"amenity": "bar", "fvst:name": "Mimers", "fvst:navnelbnr": "720541", "name": "Mimers Bodega", "opening_hours": "Mo-We 12:00-22:00; Th-Fr 12:00-24:00; Sa 11:00-24:00; Su 11:00-22:00", "phone": "+45 35823868", "ref:DK:cvr": "24994740", "wheelchair": "limited"}}, {"type": "node", "id": 4261837130, "lat": 55.6775664, "lon": 12.5811954, "tags": {"alt_name": "Cava Bar - Playa", "amenity": "bar", "fvst:navnelbnr": "920651", "name": "El Cava", "ref:DK:cvr": "40847618", "ref:DK:cvr:pnummer": "1025116239"}}, {"type": "node", "id": 4314938978, "lat": 55.6834282, "lon": 12.5882248, "tags": {"amenity": "bar", "cuisine": "tapas", "fvst:navnelbnr": "533980", "name": "Dahl & Dahl", "payment:credit_cards": "yes", "phone": "+45 2896 4006", "ref:DK:cvr": "34719519", "ref:DK:cvr:pnummer": "1017989835", "toilets": "yes", "website": "https://www.dahl-dahl.dk/"}}, {"type": "node", "id": 4318843593, "lat": 55.6773717, "lon": 12.576151, "tags": {"amenity": "bar", "description": "Oldest Jazz venue in Copenhagen; Live Music Fr-Sa 22-02 & Su 21-01", "fvst:navnelbnr": "113195", "name": "La Fontaine", "opening_hours": "Mo-Su 20:00-05:00", "ref:DK:cvr": "19139182", "ref:DK:cvr:pnummer": "1003696106", "website": "http://www.lafontaine.dk"}}, {"type": "node", "id": 4328324015, "lat": 55.6801783, "lon": 12.5760558, "tags": {"amenity": "bar", "fvst:navnelbnr": "523694", "name": "Str\u00f8m Bar", "opening_hours": "Mo-Th 18:00-01:00; Fr 16:00-03:00; Sa 18:00-03:00", "ref:DK:cvr": "34576688", "ref:DK:cvr:pnummer": "1017674745"}}, {"type": "node", "id": 4328366224, "lat": 55.6885594, "lon": 12.5621783, "tags": {"amenity": "bar", "fvst:navnelbnr": "577195", "name": "LuLu", "opening_hours": "16:00-24:00, Fr-Sa 16:00-02:00", "phone": "+45 31905293", "ref:DK:cvr": "36926333", "ref:DK:cvr:pnummer": "1020495282", "website": "http://luluravnsborggade.dk/"}}, {"type": "node", "id": 4328446361, "lat": 55.6805372, "lon": 12.5833472, "tags": {"amenity": "bar", "cuisine": "champagne", "fvst:navnelbnr": "514726", "name": "Balthazar Champagne Bar", "ref:DK:cvr": "33368127", "ref:DK:cvr:pnummer": "1016571446", "wheelchair": "no"}}, {"type": "node", "id": 4330130939, "lat": 55.677305, "lon": 12.5815953, "tags": {"amenity": "bar", "cuisine": "winebar", "fvst:navnelbnr": "114994", "name": "Ved Stranden 10", "opening_hours": "12:00-22:00; Su off", "phone": "+45 35424040", "ref:DK:cvr": "32476767", "ref:DK:cvr:pnummer": "1015575553", "website": "http://www.vedstranden10.dk/", "wikidata": "Q28225883"}}, {"type": "node", "id": 4331204551, "lat": 55.6727762, "lon": 12.5668858, "tags": {"amenity": "bar", "fvst:navnelbnr": "531950", "name": "Alpehytten Biergarten I", "operator": "Tivoli", "ref:DK:cvr": "10404916", "ref:DK:cvr:pnummer": "1002894451"}}, {"type": "node", "id": 4332887875, "lat": 55.7018848, "lon": 12.5587662}, {"type": "node", "id": 4332887876, "lat": 55.7018937, "lon": 12.5586717}, {"type": "node", "id": 4332887877, "lat": 55.7019116, "lon": 12.5586923}, {"type": "node", "id": 4332887878, "lat": 55.7019346, "lon": 12.5585591}, {"type": "node", "id": 4333917673, "lat": 55.7033623, "lon": 12.5717639, "tags": {"amenity": "bar", "fvst:navnelbnr": "660853", "name": "Parken Bar 7", "operator": "Levy Restaurants", "ref:DK:cvr": "37777005", "ref:DK:cvr:pnummer": "1022278327"}}, {"type": "node", "id": 4337859993, "lat": 55.6921663, "lon": 12.5561981, "tags": {"amenity": "bar", "internet_access": "wlan", "internet_access:ssid": "tapperietbrus", "microbrewery": "yes", "name": "Brus", "phone": "+45 75222200", "website": "https://tapperietbrus.dk/", "wheelchair": "yes"}}, {"type": "node", "id": 4340421686, "lat": 55.6938765, "lon": 12.5610607, "tags": {"amenity": "bar", "fvst:name": "Caf\u00e9 Stadion 2019", "fvst:navnelbnr": "903084", "name": "Cafe Stadion", "phone": "+45 35370656", "ref:DK:cvr": "40290818", "ref:DK:cvr:pnummer": "1024443961"}}, {"type": "node", "id": 4340872469, "lat": 55.7018981, "lon": 12.5585174}, {"type": "node", "id": 4341862608, "lat": 55.6735506, "lon": 12.5661, "tags": {"amenity": "bar", "fvst:navnelbnr": "118085", "name": "Nimb Bar og Banquet 1. sal", "ref:DK:cvr": "10404916", "ref:DK:cvr:pnummer": "1018808885"}}, {"type": "node", "id": 4387037489, "lat": 55.7009477, "lon": 12.53982, "tags": {"amenity": "bar", "fvst:navnelbnr": "111198", "name": "Hvepsereden", "ref:DK:cvr": "11750540", "ref:DK:cvr:pnummer": "1000269411"}}, {"type": "node", "id": 4387720611, "lat": 55.6869467, "lon": 12.5594593, "tags": {"amenity": "bar", "fvst:name": "Vinhanen S.M.B.A.", "fvst:navnelbnr": "523380", "name": "Vinhanen", "ref:DK:cvr": "35039244", "ref:DK:cvr:pnummer": "1018260383"}}, {"type": "node", "id": 4389544398, "lat": 55.6752253, "lon": 12.5612217, "tags": {"amenity": "bar", "fvst:navnelbnr": "114231", "name": "Imperial Bio \u00d8vre Bar", "ref:DK:cvr": "28344910", "ref:DK:cvr:pnummer": "1003023344", "wheelchair": "no"}}, {"type": "node", "id": 4402639618, "lat": 55.687061, "lon": 12.549315, "tags": {"amenity": "bar", "fvst:navnelbnr": "564445", "name": "Kocktails", "ref:DK:cvr": "36543868", "ref:DK:cvr:pnummer": "1020163239", "website": "http://kocktails.dk/"}}, {"type": "node", "id": 4424224041, "lat": 55.671923, "lon": 12.545461, "tags": {"amenity": "bar", "fvst:navnelbnr": "551620", "name": "Portvinsbaren", "opening_hours": "Th 17:00-23:00; Fr,Sa 17:00-01:00", "ref:DK:cvr": "35814329", "ref:DK:cvr:pnummer": "1019255332", "website": "http://vinhulen.dk/portvinsbaren.asp", "wheelchair": "no"}}, {"type": "node", "id": 4434074415, "lat": 55.674011, "lon": 12.53701, "tags": {"amenity": "bar", "fvst:navnelbnr": "111602", "name": "Betty Nansen Teaterbar", "ref:DK:cvr": "17358944", "ref:DK:cvr:pnummer": "1017103918"}}, {"type": "node", "id": 4489479205, "lat": 55.680944, "lon": 12.571343, "tags": {"amenity": "bar", "fvst:navnelbnr": "662261", "name": "Boulebar Sankt Petri", "opening_hours": "15:00-23:00; Th 15:00-24:00; Fr 11:00-24:00; Sa 10:00-24:00; Su 10:00-23:00", "phone": "+45 82820800", "pitch": "boules", "ref:DK:cvr": "37452939", "ref:DK:cvr:pnummer": "1021592613", "toilets:wheelchair": "yes", "website": "https://www.boulebar.dk/", "wheelchair": "yes"}}, {"type": "node", "id": 4489814136, "lat": 55.703247, "lon": 12.5716911, "tags": {"amenity": "bar", "fvst:name": "Air Group Restaurants Parken Bar 6", "fvst:navnelbnr": "660851", "name": "Bar 6", "ref:DK:cvr": "37777005", "ref:DK:cvr:pnummer": "1022278327"}}, {"type": "node", "id": 4516721448, "lat": 55.6913826, "lon": 12.5446425, "tags": {"amenity": "bar", "fvst:navnelbnr": "123647", "name": "Kronborggade 3", "opening_hours": "Mo-Sa 16:00-22:00", "ref:DK:cvr": "33305427", "ref:DK:cvr:pnummer": "1016548940"}}, {"type": "node", "id": 4536946914, "lat": 55.6832898, "lon": 12.5879807, "tags": {"amenity": "bar", "cocktails": "yes", "fvst:navnelbnr": "653451", "name": "The Barbershop", "phone": "+45 52633777", "ref:DK:cvr": "37615552", "ref:DK:cvr:pnummer": "1021339977", "website": "https://www.thebarbershop.dk/"}}, {"type": "node", "id": 4557357752, "lat": 55.7095672, "lon": 12.5772166, "tags": {"amenity": "bar", "comment": "lots of interesting beers on tap", "drink:beer": "served", "fvst:name": "Smuggler Imports", "fvst:navnelbnr": "761397", "name": "Kompasset \u00d8lbar", "opening_hours": "Tu-Th 16:00-23:45, Fr 14:00-02:00, Su 16:00-21:00; Mo,Sa 16:00-02:00", "outdoor_seating": "no", "phone": "+45 23 25 00 69", "ref:DK:cvr": "38904205", "ref:DK:cvr:pnummer": "1023910647", "smoking": "no", "wheelchair": "limited"}}, {"type": "node", "id": 4564289856, "lat": 55.678721, "lon": 12.580105, "tags": {"amenity": "bar", "fvst:fixme": "fvst position missing, fixed from overpassturbo/osak", "fvst:navnelbnr": "923586", "level": "-1", "name": "Christian IV", "ref:DK:cvr": "40364927", "website": "http://kantbar.dk/"}}, {"type": "node", "id": 4575935451, "lat": 55.6752286, "lon": 12.5724216, "tags": {"amenity": "bar", "fvst:navnelbnr": "669713", "name": "Southern Cross Pub", "payment:credit_cards": "yes", "phone": "+45 3311 0939", "ref:DK:cvr": "33758871", "toilets": "yes", "website": "https://www.southerncross.dk/"}}, {"type": "node", "id": 4593377199, "lat": 55.671211, "lon": 12.5496708, "tags": {"amenity": "bar", "contact:instagram": "httpd://www.instagram.com/ancestralebra", "email": "spis@ancestrale.dk", "facebook": "https://www.facebook.com/Ancestralebar/", "fvst:fixme": "fvst:no_pos", "fvst:navnelbnr": "958384", "name": "Ancestrale", "opening_hours": "Mo-Th 16:00-23:00; Fr-Sa 16:00-24:00", "phone": "+4560407414", "ref:DK:cvr": "41474068", "ref:DK:cvr:pnummer": "1025977730", "website": "http://ancestrale.dk"}}, {"type": "node", "id": 4619690320, "lat": 55.683378, "lon": 12.5875853, "tags": {"amenity": "bar", "fvst:name": "ReKom \u00d8st Drift Bravo", "fvst:navnelbnr": "671128", "name": "Dandy", "phone": "+45 3173 7304", "ref:DK:cvr": "37582220", "ref:DK:cvr:pnummer": "1021301716", "website": "http://dandycph.com/"}}, {"type": "node", "id": 4715837029, "lat": 55.6816577, "lon": 12.584914, "tags": {"amenity": "bar", "facebook": "https://m.facebook.com/pages/category/Pub/Wall-Street-Pub-187011364648720/", "fvst:name": "T og M Partners . C/O Wall Street Pub", "fvst:navnelbnr": "697806", "name": "Wall Street Pub", "phone": "+45 33 14 77 42", "ref:DK:cvr": "25508149", "ref:DK:cvr:pnummer": "1007788157", "toilets": "yes"}}, {"type": "node", "id": 4723359794, "lat": 55.6902991, "lon": 12.5595621, "tags": {"amenity": "bar", "fvst:navnelbnr": "112070", "name": "Osborne", "ref:DK:cvr": "17581589", "ref:DK:cvr:pnummer": "1001317132"}}, {"type": "node", "id": 4735675880, "lat": 55.679078, "lon": 12.5690251, "tags": {"amenity": "bar", "brewery": "yes;various", "fvst:navnelbnr": "670412", "internet_access": "wlan", "name": "Peders - Pisserendens \u00f8lk\u00e6lder", "opening_hours": "Mo-Th 16:00-24:00, Fr-Sa 14:00-01:00, Su 15:00-21:00", "opening_hours:covid19": "Tu-Th 16:00-00:00, Fr-Sa 14:00-00:00", "outdoor_seating": "yes", "payment:cash": "yes", "payment:contactless": "yes", "payment:credit_cards": "yes", "ref:DK:cvr": "37880736", "ref:DK:cvr:pnummer": "1021603267", "short_name": "Peders", "website": "https://pederscph.dk/"}}, {"type": "node", "id": 4736814542, "lat": 55.68475, "lon": 12.55307, "tags": {"amenity": "bar", "drink:beer": "served", "fvst:name": "Himmeriget", "fvst:navnelbnr": "574675", "name": "Himmerriget", "opening_hours": "Mo-Sa 15:00-02:00, Su 15:00-24:00", "ref:DK:cvr": "35859659", "ref:DK:cvr:pnummer": "1020227016", "website": "http://www.himmeriget.dk/", "wheelchair": "yes"}}, {"type": "node", "id": 4736814543, "lat": 55.6960863, "lon": 12.5563343, "tags": {"alt_name": "Le Pinard", "amenity": "bar", "fvst:navnelbnr": "119746", "name": "Sabot\u00f8ren", "ref:DK:cvr": "30890094", "ref:DK:cvr:pnummer": "1014528101", "wheelchair": "limited"}}, {"type": "node", "id": 4819022400, "lat": 55.7065226, "lon": 12.5339291, "tags": {"amenity": "bar", "fvst:navnelbnr": "715860", "name": "Nordvest \u00d8lbar", "opening_hours": "Tu,Th,Sa 17:00-24:00; Su,Mo off; Fr 15:00-24:00", "ref:DK:cvr": "32996477", "ref:DK:cvr:pnummer": "1021711167", "wheelchair": "no"}}, {"type": "node", "id": 4853958380, "lat": 55.7012655, "lon": 12.5809301, "tags": {"amenity": "bar", "check_date:opening_hours": "2022-03-17", "fvst:name": "\u00d8sterbros Perle ( JP Trading )", "fvst:navnelbnr": "699870", "name": "\u00d8sterbros Perle", "opening_hours": "Mo-We 10:00-24:00, Th-Sa 10:00-01:00, Su 10:00-24:00", "ref:DK:cvr": "36423765", "smoking": "yes", "wheelchair": "limited"}}, {"type": "node", "id": 4873747936, "lat": 55.6782794, "lon": 12.5716769, "tags": {"alt_name": "Miami Bar", "amenity": "bar", "fvst:navnelbnr": "807546", "name": "Miami", "ref:DK:cvr": "37060178"}}, {"type": "node", "id": 4873751689, "lat": 55.6783238, "lon": 12.5718204, "tags": {"amenity": "bar", "fvst:navnelbnr": "510135", "name": "The Drunken Flamingo", "ref:DK:cvr": "34477795", "ref:DK:cvr:pnummer": "1017620610"}}, {"type": "node", "id": 4873752562, "lat": 55.6793474, "lon": 12.57495, "tags": {"access:covid19": "no", "amenity": "bar", "name": "Francis Pony", "website": "https://francispony.dk/"}}, {"type": "node", "id": 4873752563, "lat": 55.6800374, "lon": 12.5748724, "tags": {"alt_name": "Farfars bodega & dans", "amenity": "bar", "fvst:navnelbnr": "522836", "name": "Farfar", "phone": "+45 69692023", "ref:DK:cvr": "34736871", "website": "https://farfarbodega.dk/"}}, {"type": "node", "id": 4878969893, "lat": 55.6820368, "lon": 12.5711571, "tags": {"amenity": "bar", "fvst:navnelbnr": "515809", "name": "Rhino Bar", "ref:DK:cvr": "33582676", "ref:DK:cvr:pnummer": "1016832266", "source": "Kaart Ground Survey 2017", "wheelchair": "no"}}, {"type": "node", "id": 4881595007, "lat": 55.6770916, "lon": 12.5755872, "tags": {"amenity": "bar", "fvst:navnelbnr": "903121", "name": "Comedy Zoo Cafe", "opening_hours": "Mo-We 16:30-23:00; Th-Sa 12:00-01:00", "ref:DK:cvr": "39338556", "ref:DK:cvr:pnummer": "1023353055", "website": "http://comedyzoocafe.dk/"}}, {"type": "node", "id": 4883742491, "lat": 55.6722464, "lon": 12.5558859, "tags": {"amenity": "bar", "fvst:navnelbnr": "540110", "level": "1", "name": "Zeppelin", "phone": "+45 71 70 36 66", "ref:DK:cvr": "35659641", "ref:DK:cvr:pnummer": "1019119765", "source": "Kaart Ground Survey 2017", "website": "http://zeppelincph.dk/welcome-to-copenhagens-finest-rock-bar/", "wheelchair": "no"}}, {"type": "node", "id": 4886334451, "lat": 55.6866636, "lon": 12.5321631, "tags": {"amenity": "bar", "check_date": "2021-10-29", "fvst:navnelbnr": "634370", "name": "Alhambra Pub", "ref:DK:cvr": "41635223", "ref:DK:cvr:pnummer": "1026220374", "source": "Kaart Ground Survey 2017"}}, {"type": "node", "id": 4888056705, "lat": 55.6714963, "lon": 12.5722551, "tags": {"amenity": "bar", "fvst:navnelbnr": "795212", "name": "Byens bodega", "ref:DK:cvr": "34098166", "ref:DK:cvr:pnummer": "1017391999"}}, {"type": "node", "id": 4888404365, "lat": 55.6903189, "lon": 12.5720729, "tags": {"amenity": "bar", "fvst:navnelbnr": "714724", "name": "S\u00f8hesten", "outdoor_seating": "no", "ref:DK:cvr": "36444851", "ref:DK:cvr:pnummer": "1020427082", "website": "http://soehestenbar.dk/"}}, {"type": "node", "id": 4949586070, "lat": 55.6814236, "lon": 12.5712927, "tags": {"amenity": "bar", "fvst:navnelbnr": "709814", "name": "No Stress Bar DK", "ref:DK:cvr": "38517511", "ref:DK:cvr:pnummer": "1022304018", "website": "http://www.nostressbar.dk/"}}, {"type": "node", "id": 4959567011, "lat": 55.6717677, "lon": 12.552406, "tags": {"amenity": "bar", "cuisine": "champagne;cocktails", "fvst:navnelbnr": "798024", "name": "The reception", "ref:DK:cvr": "38509527", "ref:DK:cvr:pnummer": "1022343129", "website": "http://www.thereception.dk/"}}, {"type": "node", "id": 4961986412, "lat": 55.7126998, "lon": 12.5768917, "tags": {"amenity": "bar", "brewery": "Vestfyen;Carlberg", "fvst:navnelbnr": "772737", "name": "Cafe Strandlyst", "opening_hours": "12:00-24:00; Mo off", "outdoor_seating": "yes", "ref:DK:cvr": "39858665", "ref:DK:cvr:pnummer": "1023952609", "smoking": "outside", "wheelchair": "yes"}}, {"type": "node", "id": 5017818069, "lat": 55.7024313, "lon": 12.583614, "tags": {"amenity": "bar", "cuisine": "italian", "drink:wine": "served", "fvst:navnelbnr": "712399", "name": "Beviamo Winebar", "opening_hours": "Mo-Th 16:00-22:00; Fr,Sa 16:00-22:00", "phone": "+45 66537677", "ref:DK:cvr": "38590332", "ref:DK:cvr:pnummer": "1022384909", "smoking": "no", "wheelchair": "limited"}}, {"type": "node", "id": 5017934280, "lat": 55.6841716, "lon": 12.5430347, "tags": {"amenity": "bar", "fvst:navnelbnr": "710474", "name": "Gensyn", "ref:DK:cvr": "38327429", "ref:DK:cvr:pnummer": "1022087831"}}, {"type": "node", "id": 5075577872, "lat": 55.6717046, "lon": 12.5617535, "tags": {"amenity": "bar", "fvst:navnelbnr": "118832", "name": "Absalon Bar", "operator": "Absalon Hotel", "ref:DK:cvr": "32781829", "ref:DK:cvr:pnummer": "1015892990"}}, {"type": "node", "id": 5109659910, "lat": 55.6792622, "lon": 12.5684369, "tags": {"amenity": "bar", "fvst:navnelbnr": "906047", "name": "Men\"s bar", "ref:DK:cvr": "36898534", "ref:DK:cvr:pnummer": "1021137398"}}, {"type": "node", "id": 5110956545, "lat": 55.6835862, "lon": 12.5702644, "tags": {"amenity": "bar", "fvst:navnelbnr": "669464", "name": "Bootleggers", "ref:DK:cvr": "35644806", "ref:DK:cvr:pnummer": "1019322781"}}, {"type": "node", "id": 5139657734, "lat": 55.6759648, "lon": 12.574294, "tags": {"amenity": "bar", "fvst:navnelbnr": "122607", "name": "Cph down town", "ref:DK:cvr": "33041713", "ref:DK:cvr:pnummer": "1016137029"}}, {"type": "node", "id": 5139921309, "lat": 55.6851005, "lon": 12.5660795, "tags": {"access:covid19": "no", "amenity": "bar", "branch": "Vendersgade", "fvst:navnelbnr": "540465", "name": "Mikropolis", "ref:DK:cvr": "25105583", "website": "https://mikropolis.dk/"}}, {"type": "node", "id": 5148568613, "lat": 55.6778037, "lon": 12.5745925, "tags": {"amenity": "bar", "name": "Heart of Hearts", "shop": "tattoo"}}, {"type": "node", "id": 5278008635, "lat": 55.6789888, "lon": 12.5707675, "tags": {"amenity": "bar", "cocktails": "yes", "fvst:navnelbnr": "714366", "name": "Bar7", "outdoor_seating": "no", "phone": "+45 27777787", "ref:DK:cvr": "38631578", "ref:DK:cvr:pnummer": "1022432628", "website": "http://www.bar7.dk/"}}, {"type": "node", "id": 5299631463, "lat": 55.6920482, "lon": 12.5140281, "tags": {"amenity": "bar", "fvst:navnelbnr": "1216464", "name": "Fischers kro", "phone": "+45 81906798", "ref:DK:cvr": "42526452", "ref:DK:cvr:pnummer": "1027352703"}}, {"type": "node", "id": 5401946315, "lat": 55.6843297, "lon": 12.5728065, "tags": {"amenity": "bar", "check_date": "2020-12-09", "name": "Amager Bryghus Taproom", "shop": "brewing_supplies"}}, {"type": "node", "id": 5417511363, "lat": 55.6819681, "lon": 12.5824159, "tags": {"amenity": "bar", "fvst:navnelbnr": "735886", "name": "Jazzhus Montmartre Bar", "ref:DK:cvr": "32667716", "ref:DK:cvr:pnummer": "1015752366", "wheelchair": "no"}}, {"type": "node", "id": 5539726136, "lat": 55.6728406, "lon": 12.5570465, "tags": {"amenity": "bar", "email": "info@curfew.dk", "fvst:navnelbnr": "562073", "name": "Curfew", "opening_hours": "Tu-We 18:00-01:00; Th 18:00-02:00; Fr-Sa 18:00-03:00", "phone": "+4529299276", "ref:DK:cvr": "36067179", "ref:DK:cvr:pnummer": "1020615865", "website": "http://curfew.dk"}}, {"type": "node", "id": 5664307023, "lat": 55.7062905, "lon": 12.5343114, "tags": {"amenity": "bar", "fvst:navnelbnr": "119711", "name": "The Ugly Duckling Brewery", "ref:DK:cvr": "30347927", "ref:DK:cvr:pnummer": "1013081650", "toilets:wheelchair": "yes", "website": "https://www.uglyduckbrewing.dk/tribeca-copenhagen", "wheelchair": "limited"}}, {"type": "node", "id": 5676160621, "lat": 55.6794574, "lon": 12.5765266, "tags": {"amenity": "bar", "fvst:navnelbnr": "802955", "name": "Voodoo Lounge", "website": "https://voodoo-lounge.dk/"}}, {"type": "node", "id": 5730583501, "lat": 55.7055585, "lon": 12.5793537, "tags": {"amenity": "bar", "craft": "brewery", "fvst:navnelbnr": "802404", "indoor_seating": "yes", "microbrewery": "yes", "name": "Bicycle Brewing", "opening_hours": "16:00-22:00; Su-We off", "outdoor_seating": "yes", "ref:DK:cvr": "40232567", "ref:DK:cvr:pnummer": "1024376563", "smoking": "no", "wheelchair": "no"}}, {"type": "node", "id": 5741803461, "lat": 55.6905596, "lon": 12.5554085, "tags": {"amenity": "bar", "drink:wine": "served", "fvst:navnelbnr": "720310", "name": "Pompette", "phone": "+45 53387888", "ref:DK:cvr": "38987917", "ref:DK:cvr:pnummer": "1022903221", "website": "https://shop.pompette.dk/"}}, {"type": "node", "id": 5786719592, "lat": 55.6877519, "lon": 12.5596089, "tags": {"amenity": "bar", "brand": "K\u00f8benhavn", "fvst:navnelbnr": "524351", "name": "Escobar", "outdoor_seating": "yes", "ref:DK:cvr": "31271274", "smoking": "outside"}}, {"type": "node", "id": 5840032285, "lat": 55.6883505, "lon": 12.561933, "tags": {"amenity": "bar", "bar": "winebar", "drink:wine": "served", "fvst:name": "R\u00f8dder & Vinbar", "fvst:navnelbnr": "749546", "name": "R\u00f8dder & Vin", "ref:DK:cvr": "38513141", "website": "https://rodderogvin.dk/"}}, {"type": "node", "id": 5909921704, "lat": 55.7097518, "lon": 12.5679942, "tags": {"amenity": "bar", "fvst:navnelbnr": "794660", "name": "Stefanos Vin og Tapas Bar", "ref:DK:cvr": "39604876"}}, {"type": "node", "id": 5914568859, "lat": 55.7019255, "lon": 12.5584422, "tags": {"entrance": "main"}}, {"type": "node", "id": 5928394990, "lat": 55.702241, "lon": 12.527665, "tags": {"amenity": "bar", "fvst:navnelbnr": "116423", "name": "M\u00e5gekroen", "ref:DK:cvr": "32769535", "ref:DK:cvr:pnummer": "1016015144"}}, {"type": "node", "id": 5978840363, "lat": 55.6886272, "lon": 12.5546848, "tags": {"amenity": "bar", "brewery": "lambic;belgian", "dog": "yes", "fvst:navnelbnr": "768570", "name": "1420", "opening_hours": "Mo-Su 14:00-24:00", "ref:DK:cvr": "39367815", "ref:DK:cvr:pnummer": "1023387235"}}, {"type": "node", "id": 6029934580, "lat": 55.690773, "lon": 12.5445454, "tags": {"amenity": "bar", "cuisine": "pub", "email": "skovbaren@gmail.com", "fvst:navnelbnr": "758303", "internet_access": "wlan", "internet_access:fee": "no", "internet_access:ssid": "Skovbar", "name": "Skovbar", "opening_hours": "Tu-Th 16:00-24:00, Fr-Sa 15:00-24:00", "outdoor_seating": "yes", "ref:DK:cvr": "39704420", "ref:DK:cvr:pnummer": "1023772201", "smoking": "outside"}}, {"type": "node", "id": 6036542117, "lat": 55.7078925, "lon": 12.5778792, "tags": {"amenity": "bar", "fvst:navnelbnr": "115779", "indoor_seating": "yes", "name": "Hermod Bodega", "opening_hours:signed": "no", "outdoor_seating": "no", "ref:DK:cvr": "27109209", "ref:DK:cvr:pnummer": "1014467366", "smoking": "yes", "wheelchair": "no"}}, {"type": "node", "id": 6071076502, "lat": 55.671848, "lon": 12.552391, "tags": {"amenity": "bar", "cocktails": "yes", "fvst:navnelbnr": "770970", "name": "Duck and Cover", "opening_hours": "Tu-Sa 16:00-22:00", "phone": "+45 28124290", "ref:DK:cvr": "34726965", "ref:DK:cvr:pnummer": "1018030191", "website": "http://duckandcoverbar.dk/"}}, {"type": "node", "id": 6295810438, "lat": 55.6794251, "lon": 12.5763531, "tags": {"amenity": "bar", "name": "Citizen Cocktailbar", "opening_hours": "We-Sa 18:00-23:59", "website": "http://citizencph.dk"}}, {"type": "node", "id": 6373071797, "lat": 55.6768192, "lon": 12.5760433, "tags": {"amenity": "bar", "fvst:navnelbnr": "733180", "name": "Godt \u00d8l", "payment:credit_cards": "yes", "phone": "+4523356866", "ref:DK:cvr": "38854224", "ref:DK:cvr:pnummer": "1022749834", "toilets": "yes", "website": "http://godt\u00f8l.dk"}}, {"type": "node", "id": 6402972686, "lat": 55.683934, "lon": 12.5733835, "tags": {"access:covid19": "no", "alt_name": "Y's Caf\u00e9 og Cocktailbar", "amenity": "bar", "drink:beer": "served", "drink:cocktail": "served", "fvst:navnelbnr": "113052", "name": "Ys", "ref:DK:cvr": "16291374", "ref:DK:cvr:pnummer": "1001073612", "website": "https://ys-cocktail.dk/"}}, {"type": "node", "id": 6432661706, "lat": 55.6775774, "lon": 12.57013, "tags": {"amenity": "bar", "fvst:navnelbnr": "514086", "name": "T\u00f8rst Bar", "ref:DK:cvr": "33948093", "ref:DK:cvr:pnummer": "1017136999"}}, {"type": "node", "id": 6610407468, "lat": 55.6730015, "lon": 12.5494138, "tags": {"alt_name": "Cafe Postgaarden", "amenity": "bar", "fvst:navnelbnr": "115093", "name": "Postgaarden Bar", "opening_hours": "12:00-22:00; Th-Sa 12:00-24:00; Su,PH 12:00-20:00", "phone": "+45 33312353", "ref:DK:cvr": "28924542", "smoking": "yes", "website": "http://www.postgaardencafe.dk/"}}, {"type": "node", "id": 6687706969, "lat": 55.6783076, "lon": 12.5469372, "tags": {"amenity": "bar", "brewery": "yes;various", "description": "Craft beer bar with 10 taps. Wine, spirits and soft drinks also served.", "email": "info@tap21.dk", "fvst:navnelbnr": "796742", "internet_access": "wlan", "name": "Tap 21 Craft Beer", "opening_hours": "Tu-Th 16:00-23:00; Fr-Sa 16:00-01:00", "outdoor_seating": "yes", "payment:cash": "yes", "payment:contactless": "yes", "payment:credit_cards": "yes", "phone": "+45 207 31 207", "ref:DK:cvr": "40003827", "ref:DK:cvr:pnummer": "1024107627", "website": "https://tap21.dk"}}, {"type": "node", "id": 6693570070, "lat": 55.6812174, "lon": 12.5837622, "tags": {"amenity": "bar", "fvst:navnelbnr": "906843", "name": "Bar Deco", "phone": "+45 26157437", "ref:DK:cvr": "29732469", "ref:DK:cvr:pnummer": "1024847019"}}, {"type": "node", "id": 6695972753, "lat": 55.706478, "lon": 12.537079, "tags": {"amenity": "bar", "fvst:navnelbnr": "804940", "name": "\u00c5benbar", "opening_hours": "Su 09:00-20:00, Mo-Tu 13:00-22:00; We-Th 13:00-24:00, Fr 13:00-02:00; Sa 09:00-02:00", "ref:DK:cvr": "39969386", "ref:DK:cvr:pnummer": "1024072270", "smoking": "outside", "website": "http://aabenbar.dk/"}}, {"type": "node", "id": 6695972763, "lat": 55.6762539, "lon": 12.5716401, "tags": {"amenity": "bar", "fvst:navnelbnr": "798582", "name": "Not your Usual", "ref:DK:cvr": "38325140", "ref:DK:cvr:pnummer": "1022085227"}}, {"type": "node", "id": 6699329871, "lat": 55.684145, "lon": 12.550991, "tags": {"amenity": "bar", "fvst:fixme": "fvst position missing, fixed from overpassturbo/osak", "fvst:navnelbnr": "796846", "name": "Gamble", "phone": "+45 26220575", "ref:DK:cvr": "39332094", "ref:DK:cvr:pnummer": "1023345826", "website": "http://gamble-cph.dk/"}}, {"type": "node", "id": 6699489674, "lat": 55.6773585, "lon": 12.5380853, "tags": {"amenity": "bar", "check_date": "2020-12-15", "description": "wine bar", "drink:wine": "served", "fvst:navnelbnr": "573704", "name": "Cork Vinbar", "opening_hours": "16:00-23:00; Th 16:00-24:00; Fr-Sa 14:00-01:00; Su off", "phone": "+45 51819992", "ref:DK:cvr": "37082309", "website": "http://corkvinbar.dk/"}}, {"type": "node", "id": 6708833734, "lat": 55.6755802, "lon": 12.5640869, "tags": {"amenity": "bar", "check_date": "2021-10-07", "fvst:navnelbnr": "763973", "name": "HIGH VOLTAGE"}}, {"type": "node", "id": 6761993669, "lat": 55.6770384, "lon": 12.5703918, "tags": {"amenity": "bar", "fvst:navnelbnr": "113817", "name": "Sams Bar", "ref:DK:cvr": "66082717", "ref:DK:cvr:pnummer": "1002224766"}}, {"type": "node", "id": 6763361857, "lat": 55.684295, "lon": 12.5727426, "tags": {"amenity": "bar", "fvst:navnelbnr": "749438", "name": "FoxN Friends", "phone": "+45 61783886", "ref:DK:cvr": "39377810", "ref:DK:cvr:pnummer": "1023397516"}}, {"type": "node", "id": 6837306986, "lat": 55.6758545, "lon": 12.5750111, "tags": {"amenity": "bar", "fvst:navnelbnr": "670172", "name": "Zefside", "ref:DK:cvr": "32768202", "ref:DK:cvr:pnummer": "1015903534"}}, {"type": "node", "id": 7061980768, "lat": 55.6889032, "lon": 12.559758, "tags": {"amenity": "bar", "description": "BAR \u2022 ARCADE \u2022 PINBALL", "fvst:navnelbnr": "778746", "name": "Bip Bip Bar", "opening_hours": "Tu 15:00-22:00; We 15:00-24:00; Th 15:00-02:00; Fr 15:00-04:00; Sa 12:00-04:00", "ref:DK:cvr": "39121174", "ref:DK:cvr:pnummer": "1023074288", "website": "http://bipbipbar.dk/"}}, {"type": "node", "id": 7296739573, "lat": 55.6979088, "lon": 12.5354754, "tags": {"amenity": "bar", "fvst:navnelbnr": "1220561", "name": "Glentekroen", "ref:DK:cvr": "42969451", "ref:DK:cvr:pnummer": "1027894697"}}, {"type": "node", "id": 7577988234, "lat": 55.6823112, "lon": 12.5349285, "tags": {"amenity": "bar", "fvst:navnelbnr": "560250", "name": "Vinstuen 29", "opening_hours:signed": "no", "ref:DK:cvr": "34205426", "ref:DK:cvr:pnummer": "1017388076"}}, {"type": "node", "id": 7704420213, "lat": 55.6816096, "lon": 12.5817854, "tags": {"amenity": "bar", "fvst:fixme": "fvst:no_pos", "fvst:navnelbnr": "945780", "name": "Caf\u00e9 Dan Turell", "payment:credit_cards": "yes", "phone": "+45 4292 9627", "ref:DK:cvr": "40786120", "ref:DK:cvr:pnummer": "1025180387", "toilets": "yes", "website": "https://cafedanturell.dk/"}}, {"type": "node", "id": 7708040588, "lat": 55.6818091, "lon": 12.5827019, "tags": {"amenity": "bar", "drink:wine": "served", "fvst:fixme": "fvst position missing, fixed from overpassturbo/osak", "fvst:navnelbnr": "943854", "name": "TAPS Winebar Copenhagen", "ref:DK:cvr": "40848886", "ref:DK:cvr:pnummer": "1025117944"}}, {"type": "node", "id": 7713115157, "lat": 55.6741647, "lon": 12.5698778, "tags": {"alt_name": "F\u00e6rgekroen Bryghus Bryggeri", "amenity": "bar", "fvst:navnelbnr": "982087", "microbrewery": "yes", "name": "F\u00e6rgekroen (Bryggeriet)", "ref:DK:cvr": "28223722", "ref:DK:cvr:pnummer": "1011064988", "seasonal": "summer"}}, {"type": "node", "id": 7741931221, "lat": 55.684003, "lon": 12.567595, "tags": {"amenity": "bar", "drink:wine": "served", "fvst:fixme": "fvst position missing, fixed from overpassturbo/osak", "fvst:navnelbnr": "943976", "name": "Vinum Historia", "opening_hours": "12:00-24:00", "ref:DK:cvr": "41284501", "ref:DK:cvr:pnummer": "1025725510", "website": "https://www.vinumhistoria.com/"}}, {"type": "node", "id": 8090448341, "lat": 55.682092, "lon": 12.573523, "tags": {"amenity": "bar", "bar": "wine_bar", "drink:wine": "served", "fvst:fixme": "fvst position missing, fixed from overpassturbo/osak", "fvst:navnelbnr": "959695", "name": "Melo Vinbar", "phone": "+45 23816459", "ref:DK:cvr": "35226672", "ref:DK:cvr:pnummer": "1026376838"}}, {"type": "node", "id": 8090448342, "lat": 55.68047, "lon": 12.582208, "tags": {"amenity": "bar", "fvst:fixme": "fvst position missing, fixed from overpassturbo/osak", "fvst:navnelbnr": "951919", "name": "Cocktail Bar 1105", "ref:DK:cvr": "32344186", "ref:DK:cvr:pnummer": "1019028034"}}, {"type": "node", "id": 8109952209, "lat": 55.6821665, "lon": 12.5821748, "tags": {"amenity": "bar", "fvst:navnelbnr": "515812", "name": "Ibiza Beach Bar", "ref:DK:cvr": "33076401"}}, {"type": "node", "id": 8109952211, "lat": 55.6759302, "lon": 12.5651134, "tags": {"access": "customers", "amenity": "bar", "fvst:navnelbnr": "116770", "name": "Wallmans Bar", "ref:DK:cvr": "26694094"}}, {"type": "node", "id": 8109952243, "lat": 55.6990534, "lon": 12.5360266, "tags": {"amenity": "bar", "fvst:navnelbnr": "764349", "name": "Mascot Bodega", "ref:DK:cvr": "13114951", "wheelchair": "limited"}}, {"type": "node", "id": 8109952245, "lat": 55.6991981, "lon": 12.5569106, "tags": {"amenity": "bar", "branch": "Studenterhuset ved Biocenter K\u00f8benhavn", "fvst:navnelbnr": "524194", "name": "mBAR", "ref:DK:cvr": "32484360"}}, {"type": "node", "id": 8110000745, "lat": 55.7033753, "lon": 12.5567481, "tags": {"access": "private", "amenity": "bar", "check_date": "2021-11-08", "fvst:navnelbnr": "127413", "name": "Studenterhuset Campus Sigurdsgade", "ref:DK:cvr": "33548060"}}, {"type": "node", "id": 8110000748, "lat": 55.691821, "lon": 12.555717, "tags": {"amenity": "bar", "fvst:navnelbnr": "747074", "microbrewery": "yes", "name": "Brus Bar", "ref:DK:cvr": "37222852", "website": "https://tapperietbrus.dk/bar/"}}, {"type": "node", "id": 8112044321, "lat": 55.6816061, "lon": 12.5843072, "tags": {"amenity": "bar", "fvst:navnelbnr": "638057", "name": "Aloha Beach Bar", "opening_hours": "Mo-We 18:00-03:00, Th 18:00-04:00, Fr-Sa 18:00-03:05", "phone": "+45 69692031", "ref:DK:cvr": "36402652", "website": "https://alohabeachbar.dk/"}}, {"type": "node", "id": 8112535202, "lat": 55.703523, "lon": 12.5718077, "tags": {"amenity": "bar", "fvst:name": "Air Group Restaurants Parken \u00d8l & Grillboder D2.1", "fvst:navnelbnr": "661023", "name": "\u00d8l & Grillboder D2.1", "ref:DK:cvr": "37777005"}}, {"type": "node", "id": 8117602431, "lat": 55.6783113, "lon": 12.5324887, "tags": {"amenity": "bar", "fvst:navnelbnr": "762650", "name": "Belis bar udebaren", "ref:DK:cvr": "30576241", "seasonal": "summer"}}, {"type": "node", "id": 8117602432, "lat": 55.679536, "lon": 12.521293, "tags": {"amenity": "bar", "fvst:fixme": "fvst:no_pos", "fvst:navnelbnr": "968170", "name": "Guldfasanen", "ref:DK:cvr": "41676876"}}, {"type": "node", "id": 8117602438, "lat": 55.6817464, "lon": 12.58466, "tags": {"amenity": "bar", "fvst:navnelbnr": "516447", "name": "Stereo Bar", "ref:DK:cvr": "34711941"}}, {"type": "node", "id": 8117602439, "lat": 55.68209, "lon": 12.5824986, "tags": {"amenity": "bar", "fvst:navnelbnr": "638047", "name": "Rabalder Bar", "opening_hours": "15:00 -22:00; Fr-Sa 13:00-22:00", "phone": "+45 31737347", "ref:DK:cvr": "36953489", "website": "https://rabalderbar.dk/kobenhavn/"}}, {"type": "node", "id": 8117602443, "lat": 55.6777981, "lon": 12.5703019, "tags": {"amenity": "bar", "fvst:navnelbnr": "122006", "level": "1", "name": "Tyrolia", "ref:DK:cvr": "33244460"}}, {"type": "node", "id": 8117602444, "lat": 55.677814, "lon": 12.569832, "tags": {"amenity": "bar", "fvst:navnelbnr": "805559", "name": "Use Us", "operator": "\u00d8vrige engros-k\u00e6der", "ref:DK:cvr": "39964325", "website": "https://tapit.dk/"}}, {"type": "node", "id": 8117602447, "lat": 55.687525, "lon": 12.559342, "tags": {"amenity": "bar", "fvst:fixme": "fvst position missing, fixed from overpassturbo/osak", "fvst:navnelbnr": "954601", "name": "Barbarian", "ref:DK:cvr": "41100729", "website": "https://barberianscph.com/"}}, {"type": "node", "id": 8117602450, "lat": 55.7156324, "lon": 12.5320409, "tags": {"amenity": "bar", "fvst:navnelbnr": "118118", "name": "Jeppes Bodega", "phone": "+45 35810038", "ref:DK:cvr": "26619122"}}, {"type": "node", "id": 8119069621, "lat": 55.682048, "lon": 12.582457, "tags": {"amenity": "bar", "fvst:name": "Gothersgade 33A", "fvst:navnelbnr": "121527", "name": "Alpehytten", "phone": "+45 31482885", "ref:DK:cvr": "33149948", "website": "http://www.alpe-hytten.dk/"}}, {"type": "node", "id": 8119069626, "lat": 55.6811217, "lon": 12.584053, "tags": {"amenity": "bar", "fvst:navnelbnr": "907023", "name": "Kongens bar", "ref:DK:cvr": "39980177"}}, {"type": "node", "id": 8119069628, "lat": 55.6718348, "lon": 12.5626038, "tags": {"amenity": "bar", "fvst:navnelbnr": "567578", "name": "Good Morning City Copenhagen Star Bar", "ref:DK:cvr": "33580037"}}, {"type": "node", "id": 8124919082, "lat": 55.7083264, "lon": 12.532336, "tags": {"amenity": "bar", "fvst:navnelbnr": "714909", "name": "Viggo Bar", "opening_hours": "10:00-05:00", "phone": "+45 35813462", "ref:DK:cvr": "36016574", "smoking": "yes"}}, {"type": "node", "id": 8124919083, "lat": 55.7089492, "lon": 12.5388346, "tags": {"amenity": "bar", "fvst:navnelbnr": "115976", "name": "Laugskroen v\u00e6rtshus", "opening_hours": "Mo-Th 10:00-22:00; Fr 10:00-24:00; Sa 10:00-23:00; PH,Su 10:00-20:00", "phone": "+45 35810730", "ref:DK:cvr": "28164963"}}, {"type": "node", "id": 8124919085, "lat": 55.702123, "lon": 12.5377583, "tags": {"amenity": "bar", "branch": "Copenhagen", "fvst:navnelbnr": "921708", "name": "Urban Camper", "ref:DK:cvr": "40441123", "website": "https://www.urbancamper.dk/bar-separator/bar"}}, {"type": "node", "id": 8124919086, "lat": 55.702354, "lon": 12.533235, "tags": {"amenity": "bar", "fvst:navnelbnr": "559953", "name": "Cafe Palermo", "ref:DK:cvr": "36432470"}}, {"type": "node", "id": 8124919089, "lat": 55.7047135, "lon": 12.5264504, "tags": {"amenity": "bar", "fvst:navnelbnr": "112511", "name": "Caf\u00e9 Fuglereden", "phone": "+45 38332026", "ref:DK:cvr": "25832299", "website": "https://cafefuglereden.dk/"}}, {"type": "node", "id": 8124919091, "lat": 55.7022, "lon": 12.550238, "tags": {"amenity": "bar", "fvst:fixme": "fvst position missing, fixed from overpassturbo/osak", "fvst:navnelbnr": "129887", "name": "Caf\u00e9 Coma", "ref:DK:cvr": "34100764"}}, {"type": "node", "id": 8124949018, "lat": 55.689782, "lon": 12.560259, "tags": {"amenity": "bar", "fvst:navnelbnr": "921488", "name": "L\u00c9ANOWSKI BAR", "ref:DK:cvr": "40432728"}}, {"type": "node", "id": 8124949019, "lat": 55.688107, "lon": 12.561284, "tags": {"amenity": "bar", "fvst:navnelbnr": "117693", "name": "N\u00f8rrebro Teater Bar", "ref:DK:cvr": "16148245"}}, {"type": "node", "id": 8124949020, "lat": 55.6818909, "lon": 12.5592724, "tags": {"amenity": "bar", "fvst:navnelbnr": "905878", "name": "GL24 S\u00f8pavillonen", "ref:DK:cvr": "39911558"}}, {"type": "node", "id": 8124949021, "lat": 55.678374, "lon": 12.587563, "tags": {"amenity": "bar", "fvst:navnelbnr": "717035", "name": "Tata bar", "ref:DK:cvr": "36945184", "website": "https://hotelsanders.com/tatacocktailbar/"}}, {"type": "node", "id": 8124949025, "lat": 55.679342, "lon": 12.57629, "tags": {"amenity": "bar", "fvst:navnelbnr": "802955", "name": "VOODOO", "ref:DK:cvr": "36417935"}}, {"type": "node", "id": 8124949026, "lat": 55.6765698, "lon": 12.5745614, "tags": {"amenity": "bar", "fvst:navnelbnr": "794636", "name": "Galathea Dybet", "ref:DK:cvr": "37610720"}}, {"type": "node", "id": 8124949028, "lat": 55.6734559, "lon": 12.5672284, "tags": {"amenity": "bar", "fvst:navnelbnr": "114671", "name": "Mezzo Bar Promenaden Tivoli", "ref:DK:cvr": "21572780", "seasonal": "summer"}}, {"type": "node", "id": 8124949030, "lat": 55.6732198, "lon": 12.5554902, "tags": {"amenity": "bar", "fvst:navnelbnr": "112993", "name": "Det Ny Teater Bar 1 balkonplan", "ref:DK:cvr": "17741039"}}, {"type": "node", "id": 8124949037, "lat": 55.6721242, "lon": 12.5253878, "tags": {"access": "private", "amenity": "bar", "fvst:navnelbnr": "111265", "name": "Kadetk\u00e6lderen", "ref:DK:cvr": "13019347"}}, {"type": "node", "id": 8130361800, "lat": 55.7085946, "lon": 12.5314784, "tags": {"amenity": "bar", "check_date:opening_hours": "2022-02-05", "fvst:name": "Tomsg\u00e5rd", "fvst:navnelbnr": "114312", "name": "Tomsgaards Cafe", "opening_hours": "07:00-23:30", "ref:DK:cvr": "20442832", "smoking": "yes"}}, {"type": "node", "id": 8130361801, "lat": 55.70631, "lon": 12.539166, "tags": {"access": "private", "amenity": "bar", "fvst:navnelbnr": "706949", "name": "Moonbar", "ref:DK:cvr": "38321064"}}, {"type": "node", "id": 8130361806, "lat": 55.679455, "lon": 12.529418, "tags": {"amenity": "bar", "fvst:navnelbnr": "781946", "name": "Cafe Domhuset", "opening_hours": "12:00-02:00, Su 12:00-23:00", "phone": "+45 38348278", "ref:DK:cvr": "17721437", "smoking": "yes", "website": "https://www.cafedomhuset.dk/"}}, {"type": "node", "id": 8132048131, "lat": 55.697835, "lon": 12.544911, "tags": {"amenity": "bar", "fvst:name": "RESTAURATIONSANPARTSELSKABET RYLA Karusellen", "fvst:navnelbnr": "112137", "name": "Karusellen", "ref:DK:cvr": "18125773"}}, {"type": "node", "id": 8133042254, "lat": 55.687938, "lon": 12.554122, "tags": {"amenity": "bar", "fvst:navnelbnr": "516858", "name": "Trabi Bar", "ref:DK:cvr": "34623287", "ref:DK:cvr:pnummer": "1017835358"}}, {"type": "node", "id": 8137334217, "lat": 55.684718, "lon": 12.564939, "tags": {"amenity": "bar", "fvst:navnelbnr": "113452", "name": "Hotel Kong Arthur Baren", "ref:DK:cvr": "75612419", "ref:DK:cvr:pnummer": "1002465170", "website": "https://www.arthurhotels.dk/dk/hotel-kong-arthur/mad-drikke/baren/"}}, {"type": "node", "id": 8137959592, "lat": 55.6711275, "lon": 12.5433807, "tags": {"access:covid19": "no", "amenity": "bar", "check_date": "2020-12-15", "name": "Vaest", "website": "https://www.vaest.dk/"}}, {"type": "node", "id": 8138045851, "lat": 55.6871892, "lon": 12.5404647, "tags": {"amenity": "bar", "fvst:navnelbnr": "558279", "name": "Frb \u00d8lbar", "opening_hours": "Mo-We 14:00-01:00, Th 14:00-02:00, Fr,Sa 12:00-04:00, Su 12:00-24:00", "ref:DK:cvr": "35519270", "ref:DK:cvr:pnummer": "1018843702"}}, {"type": "node", "id": 8138045852, "lat": 55.6862958, "lon": 12.5400653, "tags": {"amenity": "bar", "fvst:navnelbnr": "906091", "name": "Caf\u00e9 Francke", "opening_hours": "Mo-We 13:00-24:00, Th-Sa 13:00-02:00, Su 13:00-20:00", "phone": "+45 35364052", "ref:DK:cvr": "38192183", "ref:DK:cvr:pnummer": "1021936002"}}, {"type": "node", "id": 8138067672, "lat": 55.680757, "lon": 12.522294, "tags": {"amenity": "bar", "fvst:navnelbnr": "768256", "name": "Solbakken Bar", "ref:DK:cvr": "39574217", "ref:DK:cvr:pnummer": "1023621734", "smoking": "yes"}}, {"type": "node", "id": 8141496993, "lat": 55.67961, "lon": 12.576044, "tags": {"amenity": "bar", "fvst:navnelbnr": "112895", "name": "Peder Oxe Vink\u00e6lderen", "ref:DK:cvr": "26119243", "ref:DK:cvr:pnummer": "1003206635"}}, {"type": "node", "id": 8142995803, "lat": 55.704551, "lon": 12.532208, "tags": {"amenity": "bar", "fvst:name": "SJAKATIN", "fvst:navnelbnr": "568515", "name": "Glashuset", "ref:DK:cvr": "36710128", "ref:DK:cvr:pnummer": "1020309136", "smoking": "yes"}}, {"type": "node", "id": 8143723560, "lat": 55.6790425, "lon": 12.539364, "tags": {"amenity": "bar", "fvst:name": "A.V.F. - R\u00c5D Studenter Forening", "fvst:navnelbnr": "113050", "name": "A-vej", "ref:DK:cvr": "16275441", "ref:DK:cvr:pnummer": "1001070509"}}, {"type": "node", "id": 8144238925, "lat": 55.681637, "lon": 12.53076, "tags": {"access": "private", "amenity": "bar", "fvst:navnelbnr": "110827", "name": "Caf\u00e9 Nexus", "ref:DK:cvr": "10020867", "ref:DK:cvr:pnummer": "1007443257", "website": "https://www.cbsstudents.dk/cafe-nexus"}}, {"type": "node", "id": 8144238928, "lat": 55.672427, "lon": 12.557519, "tags": {"amenity": "bar", "brewery": "Refsvindinge", "drink:beer": "served", "fvst:navnelbnr": "550794", "name": "Dia'legd", "opening_hours": "Th 17:00-24:00, Fr 16:00-02:00, Sa 15:00-02:00", "phone": "+45 20676583", "ref:DK:cvr": "35477292", "ref:DK:cvr:pnummer": "1018764705", "website": "http://dialegd.dk/"}}, {"type": "node", "id": 8144238930, "lat": 55.6732055, "lon": 12.5554754, "tags": {"amenity": "bar", "fvst:navnelbnr": "113055", "name": "Det Ny Teater Bar 2 parketplan", "ref:DK:cvr": "17741039", "ref:DK:cvr:pnummer": "1001350203"}}, {"type": "node", "id": 8144238933, "lat": 55.6784007, "lon": 12.5687681, "tags": {"amenity": "bar", "fvst:navnelbnr": "113034", "lgbtq": "primary", "name": "COSY BAR", "ref:DK:cvr": "15734531", "ref:DK:cvr:pnummer": "1000969333", "website": "https://www.cosybar.dk/"}}, {"type": "node", "id": 8144238935, "lat": 55.67738, "lon": 12.567119, "tags": {"amenity": "bar", "fvst:navnelbnr": "566644", "lgbtq": "primary", "name": "G*A*Y", "ref:DK:cvr": "35515003", "ref:DK:cvr:pnummer": "1018819011"}}, {"type": "node", "id": 8146827279, "lat": 55.6732954, "lon": 12.5714839, "tags": {"amenity": "bar", "fvst:fixme": "fvst position missing, fixed from overpassturbo/osak", "fvst:navnelbnr": "936384", "name": "Churros", "ref:DK:cvr": "10404916", "ref:DK:cvr:pnummer": "1002894451"}}, {"type": "node", "id": 8158377269, "lat": 55.6713715, "lon": 12.5600529, "tags": {"amenity": "bar", "fvst:navnelbnr": "722039", "name": "Hats Boots & Bourbon", "phone": "+45 91821908", "ref:DK:cvr": "38643762", "ref:DK:cvr:pnummer": "1022446262", "shop": "clothes", "website": "https://hatsbootsbourbon.com/"}}, {"type": "node", "id": 8162242504, "lat": 55.6732342, "lon": 12.5554496, "tags": {"amenity": "bar", "fvst:navnelbnr": "113522", "name": "Det Ny Teater Bar 1", "ref:DK:cvr": "17741039", "ref:DK:cvr:pnummer": "1001350203"}}, {"type": "node", "id": 8165451528, "lat": 55.6732372, "lon": 12.5554976, "tags": {"amenity": "bar", "fvst:navnelbnr": "113593", "name": "Det Ny Teater Bar 2 balkonplan", "ref:DK:cvr": "17741039", "ref:DK:cvr:pnummer": "1001350203"}}, {"type": "node", "id": 8168142117, "lat": 55.6731526, "lon": 12.5666068, "tags": {"amenity": "bar", "fvst:navnelbnr": "115785", "name": "Smugkroen", "ref:DK:cvr": "10404916", "ref:DK:cvr:pnummer": "1002894451"}}, {"type": "node", "id": 8183211033, "lat": 55.7055674, "lon": 12.5747619, "tags": {"amenity": "bar", "fvst:navnelbnr": "719496", "name": "Republique Bar", "opening_hours": "\"open 1 hour before shows\"", "operator": "\u00d8sterbro Teater", "ref:DK:cvr": "16213098", "ref:DK:cvr:pnummer": "1001056661", "website": "https://krudttonden.kk.dk/lej-lokaler/cafeen", "wheelchair": "yes"}}, {"type": "node", "id": 8184307408, "lat": 55.6732293, "lon": 12.555517, "tags": {"amenity": "bar", "fvst:navnelbnr": "112150", "name": "Det Ny Teater Bar 2", "ref:DK:cvr": "17741039", "ref:DK:cvr:pnummer": "1001350203"}}, {"type": "node", "id": 8184307413, "lat": 55.677633, "lon": 12.536886, "tags": {"amenity": "bar", "fvst:fixme": "fvst position missing, fixed from overpassturbo/osak", "fvst:navnelbnr": "933189", "name": "Creative Space", "ref:DK:cvr": "39187280", "ref:DK:cvr:pnummer": "1023170198"}}, {"type": "node", "id": 8194350862, "lat": 55.6748724, "lon": 12.5637613, "tags": {"amenity": "bar", "fvst:navnelbnr": "539452", "name": "Radisson Blu Royal Hotel Hotel Bar", "ref:DK:cvr": "35255095", "ref:DK:cvr:pnummer": "1018543628"}}, {"type": "node", "id": 8194597733, "lat": 55.6732077, "lon": 12.5554895, "tags": {"amenity": "bar", "fvst:navnelbnr": "646042", "name": "Det Ny Teater Bar k\u00e6lder", "ref:DK:cvr": "17741039", "ref:DK:cvr:pnummer": "1001350203"}}, {"type": "node", "id": 8197943616, "lat": 55.690637, "lon": 12.558319, "tags": {"access:covid19": "no", "amenity": "bar", "drink:cocktail": "served", "fvst:fixme": "fvst position missing, fixed from overpassturbo/osak", "fvst:navnelbnr": "962317", "name": "The Flatiron", "phone": "+45 35245200", "ref:DK:cvr": "40694390", "ref:DK:cvr:pnummer": "1024940531", "website": "https://www.theflatiron.dk/"}}, {"type": "node", "id": 8200275553, "lat": 55.6771747, "lon": 12.5757653, "tags": {"amenity": "bar", "fvst:fixme": "fvst position missing, fixed from overpassturbo/osak", "fvst:navnelbnr": "956870", "name": "C\u00f3cteles Copenhagen", "phone": "+45 42942672", "takeaway": "only", "website": "https://xn--cctelescopenhagen-gyb.com/"}}, {"type": "node", "id": 8200275556, "lat": 55.677264, "lon": 12.569676, "tags": {"amenity": "bar", "fvst:fixme": "fvst position missing, fixed from overpassturbo/osak", "fvst:navnelbnr": "961585", "name": "Hugos Strandbar", "opening_hours": "Th 20:00-03:00, Fr-Sa 20:00-05:00", "phone": "+45 81813305", "ref:DK:cvr": "39475391", "ref:DK:cvr:pnummer": "1026208390", "website": "http://tequilabar.dk/"}}, {"type": "node", "id": 8200275557, "lat": 55.673224, "lon": 12.55546, "tags": {"amenity": "bar", "fvst:navnelbnr": "113521", "name": "Det Ny Teater Bar 1 parketplan", "ref:DK:cvr": "17741039", "ref:DK:cvr:pnummer": "1001350203"}}, {"type": "node", "id": 8200381042, "lat": 55.681228, "lon": 12.579438, "tags": {"amenity": "bar", "fvst:fixme": "fvst position missing, fixed from overpassturbo/osak", "fvst:navnelbnr": "961582", "name": "R\u00e6vens Bar", "opening_hours": "15:00+,Su-Mo off", "phone": "+45 81813306", "ref:DK:cvr": "39913992", "ref:DK:cvr:pnummer": "1025979881", "website": "http://raevensbar.dk/"}}, {"type": "node", "id": 8204073348, "lat": 55.687674, "lon": 12.559516, "tags": {"amenity": "bar", "fvst:fixme": "fvst position missing, fixed from overpassturbo/osak", "fvst:navnelbnr": "955713", "name": "Torobar", "opening_hours": "11:00-24:00; Fr-Sa 11:00-02:00", "ref:DK:cvr": "39516942", "ref:DK:cvr:pnummer": "1023557505", "website": "http://torobar.dk/"}}, {"type": "node", "id": 8211567574, "lat": 55.6742078, "lon": 12.5660833, "tags": {"amenity": "bar", "fvst:fixme": "fvst position missing, fixed from overpassturbo/osak", "fvst:navnelbnr": "960253", "name": "Gl\u00f8gg og Hygge", "ref:DK:cvr": "31863570", "ref:DK:cvr:pnummer": "1019327708", "seasonal": "winter"}}, {"type": "node", "id": 8214134206, "lat": 55.6745058, "lon": 12.5657286, "tags": {"amenity": "bar", "fvst:fixme": "fvst position missing, fixed from overpassturbo/osak", "fvst:navnelbnr": "930991", "name": "Mr. Snowmans hotdrinks", "ref:DK:cvr": "31863570", "ref:DK:cvr:pnummer": "1019327708"}}, {"type": "node", "id": 8225542170, "lat": 55.672135, "lon": 12.5203491, "tags": {"amenity": "bar", "fvst:fixme": "fvst position missing, fixed from overpassturbo/osak", "fvst:navnelbnr": "952045", "name": "Caf\u00e9 Del Mundo (udebar)", "ref:DK:cvr": "30553225", "ref:DK:cvr:pnummer": "1026123352"}}, {"type": "node", "id": 8227922735, "lat": 55.6739216, "lon": 12.5687429, "tags": {"amenity": "bar", "fvst:navnelbnr": "745430", "name": "Orangeriet Bar", "ref:DK:cvr": "10404916", "ref:DK:cvr:pnummer": "1002894451"}}, {"type": "node", "id": 8537212688, "lat": 55.6933556, "lon": 12.5474989, "tags": {"amenity": "bar", "name": "Liquid"}}, {"type": "node", "id": 8706595479, "lat": 55.6895374, "lon": 12.5581541, "tags": {"amenity": "bar", "facebook": "Vivant CPH", "fvst:navnelbnr": "985777", "instagram": "vivant_cph", "name": "Bar Vivant", "opening_hours": "Tu-Th 12:00-23:00; Fr, Sa 12:00-24:00", "ref:DK:cvr": "42143065", "ref:DK:cvr:pnummer": "1026948629", "shop": "wine", "website": "https://vivant.dk"}}, {"type": "node", "id": 8849254699, "lat": 55.6856548, "lon": 12.5574538, "tags": {"amenity": "bar", "drink:wine": "yes", "fvst:navnelbnr": "976202", "name": "Radical Roots", "phone": "+45 31629001", "ref:DK:cvr": "41912219", "ref:DK:cvr:pnummer": "1026548051", "shop": "alcohol", "website": "https://www.rootsvin.dk/location"}}, {"type": "node", "id": 9091818726, "lat": 55.6713509, "lon": 12.5540875, "tags": {"amenity": "bar", "fvst:navnelbnr": "551577", "name": "Kanon Bar", "ref:DK:cvr": "35741763", "ref:DK:cvr:pnummer": "1019254158"}}, {"type": "node", "id": 9094792907, "lat": 55.6735178, "lon": 12.5668344, "tags": {"amenity": "bar", "fvst:navnelbnr": "983704", "name": "TIVOLI/Nohrlund Bar", "ref:DK:cvr": "10404916", "ref:DK:cvr:pnummer": "1002894451"}}, {"type": "node", "id": 9094826517, "lat": 55.6728603, "lon": 12.5668469, "tags": {"amenity": "bar", "drink:beer": "yes", "fvst:navnelbnr": "993168", "name": "Anarkist", "ref:DK:cvr": "10404916", "ref:DK:cvr:pnummer": "1002894451"}}, {"type": "node", "id": 9101761999, "lat": 55.6837353, "lon": 12.5665529, "tags": {"amenity": "bar", "fvst:navnelbnr": "983999", "name": "Censuum", "ref:DK:cvr": "42084646", "ref:DK:cvr:pnummer": "1026758293", "shop": "clothes", "website": "https://www.censuum.dk/"}}, {"type": "node", "id": 9101970206, "lat": 55.6797397, "lon": 12.5333801, "tags": {"amenity": "bar", "fvst:navnelbnr": "1012862", "name": "Scandic Falkoner Bar", "operator": "Scandic Hotels", "ref:DK:cvr": "12596774", "ref:DK:cvr:pnummer": "1022910376"}}, {"type": "node", "id": 9101970216, "lat": 55.6853486, "lon": 12.5690851, "tags": {"amenity": "bar", "fvst:navnelbnr": "992941", "name": "Chums", "ref:DK:cvr": "42380156", "ref:DK:cvr:pnummer": "1027151678"}}, {"type": "node", "id": 9102016626, "lat": 55.6836454, "lon": 12.5698768, "tags": {"amenity": "bar", "description": "low-alcoholic drinks", "fvst:navnelbnr": "993911", "name": "Pavillion De Verre", "ref:DK:cvr": "39707799", "ref:DK:cvr:pnummer": "1026528891"}}, {"type": "node", "id": 9106162220, "lat": 55.6792134, "lon": 12.5257662, "tags": {"amenity": "bar", "drink:wine": "yes", "fvst:navnelbnr": "995616", "name": "VBAR", "opening_hours": "14:00-24:00; Su 14:00-22:00;Mo-Tu off", "phone": "+45 22262500", "ref:DK:cvr": "42302015", "ref:DK:cvr:pnummer": "1027275970", "website": "http://www.vbar.dk/"}}, {"type": "node", "id": 9110835344, "lat": 55.672712, "lon": 12.55484, "tags": {"amenity": "bar", "cuisine": "tapas", "description": "vinbar", "drink:wine": "yes", "fvst:navnelbnr": "713429", "name": "PioVin", "ref:DK:cvr": "38833545", "ref:DK:cvr:pnummer": "1022722189", "website": "http://www.piovin.dk/"}}, {"type": "node", "id": 9156318645, "lat": 55.6796614, "lon": 12.5737175, "tags": {"amenity": "bar", "cuisine": "italian", "fvst:navnelbnr": "994135", "name": "La Padella Pavillon", "ref:DK:cvr": "41107537", "ref:DK:cvr:pnummer": "1025863522"}}, {"type": "node", "id": 9157404750, "lat": 55.6794264, "lon": 12.5861867, "tags": {"amenity": "bar", "branch": "Gammel Scene", "fvst:name": "DET KONGELIGE TEATER- Gl.Scene Pausebar", "fvst:navnelbnr": "1109562", "name": "Pausebar", "ref:DK:cvr": "10842255", "ref:DK:cvr:pnummer": "1003404492", "source": "AWS Web API"}}, {"type": "node", "id": 9157480739, "lat": 55.6989501, "lon": 12.5768402, "tags": {"amenity": "bar", "fvst:navnelbnr": "992206", "name": "Trianglen 7", "opening_hours": "16:00-22:00; Sa 12:00-22:00; Su-Mo off", "phone": "+45 42670907", "ref:DK:cvr": "42307076", "ref:DK:cvr:pnummer": "1027049784", "website": "https://trianglensyv.dk/", "wheelchair": "no"}}, {"type": "node", "id": 9157557636, "lat": 55.678921, "lon": 12.570608, "tags": {"amenity": "bar", "description": "Champagne & Cocktail bar", "drink:cocktails": "yes", "fvst:navnelbnr": "985940", "name": "Kester Thomas", "opening_hours": "18:00-24:00, Fr 16:00-02.00, Sa 18:00-02:00,Mo-Tu off", "ref:DK:cvr": "37345210", "ref:DK:cvr:pnummer": "1021030151", "website": "https://kesterthomas.com/"}}, {"type": "node", "id": 9157591532, "lat": 55.6904787, "lon": 12.5603817, "tags": {"amenity": "bar", "drink:cocktails": "yes", "fvst:navnelbnr": "987582", "name": "Pulp", "ref:DK:cvr": "42224731", "ref:DK:cvr:pnummer": "1026925181"}}, {"type": "node", "id": 9159589169, "lat": 55.677625, "lon": 12.5664495, "tags": {"amenity": "bar", "fvst:navnelbnr": "969462", "name": "Two Socks V", "ref:DK:cvr": "41599251", "ref:DK:cvr:pnummer": "1026163664", "website": "https://two-socks.dk/"}}, {"type": "node", "id": 9173401696, "lat": 55.68407, "lon": 12.568102, "tags": {"amenity": "bar", "fvst:navnelbnr": "987197", "name": "Wiine", "ref:DK:cvr": "42269603", "ref:DK:cvr:pnummer": "1026981294"}}, {"type": "node", "id": 9210363129, "lat": 55.682334, "lon": 12.571774, "tags": {"amenity": "bar", "fvst:navnelbnr": "989121", "name": "F2", "ref:DK:cvr": "39158043", "ref:DK:cvr:pnummer": "1025252191"}}, {"type": "node", "id": 9283850285, "lat": 55.6843239, "lon": 12.563753, "tags": {"amenity": "bar", "fvst:navnelbnr": "701789", "level": "-1", "name": "VINTAGE CHAMPAGNE", "phone": "+45 71747416", "ref:DK:cvr": "36550562", "ref:DK:cvr:pnummer": "1020182179", "website": "https://www.champagnekaelderen.dk/"}}, {"type": "node", "id": 9310728701, "lat": 55.7031954, "lon": 12.5551048, "tags": {"access": "private", "alt_name": "Studenterhuset Sigurdsbar", "amenity": "bar", "fvst:navnelbnr": "927713", "name": "Studentercaf\u00e9en Sigurdsbar", "ref:DK:cvr": "42912050", "ref:DK:cvr:pnummer": "1027859999"}}, {"type": "node", "id": 9350660863, "lat": 55.6976586, "lon": 12.5760803, "tags": {"amenity": "bar", "club": "handicraft", "craft": "handicraft", "fvst:navnelbnr": "1200183", "leisure": "handicraft", "name": "The Fiddlery", "opening_hours": "10:00-22:00; Fr-Sa 10:00-24:00", "phone": "+45 31411913", "ref:DK:cvr": "42618020", "ref:DK:cvr:pnummer": "1027460905", "website": "https://thefiddlery.dk/"}}, {"type": "node", "id": 9351196036, "lat": 55.671432, "lon": 12.558422, "tags": {"amenity": "bar", "fvst:navnelbnr": "975254", "name": "Gin-D", "ref:DK:cvr": "41872179", "ref:DK:cvr:pnummer": "1026499573"}}, {"type": "node", "id": 9454954545, "lat": 55.6806517, "lon": 12.5337419, "tags": {"amenity": "bar", "fvst:navnelbnr": "1218264", "name": "Bootleggers", "opening_hours:signed": "no", "ref:DK:cvr": "33146973", "ref:DK:cvr:pnummer": "1027396476", "website": "https://www.bootleggers.dk/kopi-af-amager"}}, {"type": "node", "id": 9579551700, "lat": 55.712242, "lon": 12.571896, "tags": {"amenity": "bar", "fvst:navnelbnr": "1207085", "name": "Bobs Brew", "ref:DK:cvr": "42450707", "ref:DK:cvr:pnummer": "1027241685"}}, {"type": "node", "id": 9591044694, "lat": 55.6935211, "lon": 12.5338305, "tags": {"amenity": "bar", "fvst:navnelbnr": "1215551", "name": "Shaniques Hideaway", "ref:DK:cvr": "42495166", "ref:DK:cvr:pnummer": "1027299489"}}, {"type": "node", "id": 9618862255, "lat": 55.6864499, "lon": 12.58738, "tags": {"amenity": "bar", "fvst:navnelbnr": "1216517", "name": "Borgerly", "ref:DK:cvr": "42308927", "ref:DK:cvr:pnummer": "1027729823", "smoking": "yes"}}, {"type": "node", "id": 9642607404, "lat": 55.674319, "lon": 12.5652897, "tags": {"amenity": "bar", "fvst:navnelbnr": "1202189", "name": "Elis Ristede Kastanjer", "ref:DK:cvr": "39662884", "ref:DK:cvr:pnummer": "1023735268"}}, {"type": "node", "id": 9642934828, "lat": 55.68224, "lon": 12.5725521, "tags": {"amenity": "bar", "fvst:navnelbnr": "1221485", "name": "Rosengaardens Vinstue", "opening_hours": "16:00-24:00; Fr 14:00-24:00; Sa 12:00-24:00; Su-Mo off", "phone": "+45 69692034", "ref:DK:cvr": "31625246", "ref:DK:cvr:pnummer": "1027413168", "smoking": "yes", "website": "http://rosengaardensvinstue.dk/"}}, {"type": "node", "id": 9642934833, "lat": 55.6750431, "lon": 12.5722773, "tags": {"amenity": "bar", "fvst:navnelbnr": "1217346", "name": "La Bonita", "ref:DK:cvr": "28100019", "ref:DK:cvr:pnummer": "1010740572"}}, {"type": "node", "id": 9645254584, "lat": 55.6787997, "lon": 12.5698363, "tags": {"amenity": "bar", "drink:cocktail": "yes", "fvst:navnelbnr": "1012973", "name": "Blume", "opening_hours": "Fr-Sa 20:00-05:00", "phone": "+45 60617158", "ref:DK:cvr": "37038830", "ref:DK:cvr:pnummer": "1020676147", "website": "https://blumecph.dk/"}}, {"type": "node", "id": 9645254585, "lat": 55.677945, "lon": 12.568094, "tags": {"amenity": "bar", "fvst:navnelbnr": "955617", "name": "Kiss kiss", "ref:DK:cvr": "39876280", "ref:DK:cvr:pnummer": "1023971085"}}, {"type": "node", "id": 9645439907, "lat": 55.7099946, "lon": 12.5172761, "tags": {"amenity": "bar", "description": "\u00d8lbar", "drink:beer": "yes", "fvst:navnelbnr": "1120496", "name": "Dortheas", "opening_hours": "Th 14:30-23:00, Fr 14:30-01:00, Sa 14:00-01:00", "phone": "+45 52693305", "ref:DK:cvr": "42543926", "ref:DK:cvr:pnummer": "1027371112", "website": "https://dortheasbar.dk/"}}, {"type": "node", "id": 9645439911, "lat": 55.6893943, "lon": 12.555331, "tags": {"amenity": "bar", "fvst:navnelbnr": "990566", "name": "Fantom Bar", "ref:DK:cvr": "42136719", "ref:DK:cvr:pnummer": "1027176182"}}, {"type": "node", "id": 9645439914, "lat": 55.6784134, "lon": 12.57201, "tags": {"amenity": "bar", "fvst:navnelbnr": "1010747", "name": "Sukkerbageren", "ref:DK:cvr": "40732195", "ref:DK:cvr:pnummer": "1024965658"}}, {"type": "way", "id": 36774301, "nodes": [427561448, 5914568859, 4340872469, 4332887878, 4332887876, 4332887877, 4332887875, 427561450, 427561453, 427561448], "tags": {"access": "students", "alt_name": "Caf\u00e9en?", "amenity": "bar", "building": "yes", "fvst:name": "Foreningen til caf\u00e9drift af caf\u00e9", "fvst:navnelbnr": "118221", "name": "Caf\u00e9en p\u00e5 Naturvidenskab", "operator": "Foreningen til caf\u00e9drift af 1993 caf\u00e9", "outdoor_seating": "yes", "ref:DK:cvr": "17223801", "ref:DK:cvr:pnummer": "1001246648", "website": "https://www.cafeen.org/"}}, {"type": "way", "id": 88728055, "nodes": [1029964889, 1029964787, 1029964937, 1029964825, 1029964797, 1029964828, 1029964895, 1029964898, 1029964930, 1029964860, 1029964833, 1029964887, 1029964927, 279697161, 1029964889], "tags": {"access": "private", "amenity": "bar", "building": "yes", "building:levels": "1", "check_date": "2020-12-14", "name": "Caf\u00e9 Irgens", "operator": "Egmont H. Petersens Kollegium", "roof:material": "tar_paper", "roof:shape": "flat"}}, {"type": "way", "id": 147291402, "nodes": [1605261391, 1605261367, 1605261363, 1605261387, 1605261391], "tags": {"amenity": "bar", "building": "yes", "fvst:navnelbnr": "128268", "name": "Lumskebuksen", "ref:DK:cvr": "32681778", "ref:DK:cvr:pnummer": "1015821457", "website": "http://www.lumskebuksen.dk/", "wikimedia_commons": "File:Lumskebuksen 01.jpg"}}, {"type": "way", "id": 324488860, "nodes": [3312007936, 3529010440, 3312007937, 2338189065, 2338189050, 2338189077, 2338189058, 3312007936], "tags": {"amenity": "bar", "building": "yes", "fvst:navnelbnr": "516689", "internet_access": "wlan", "internet_access:ssid": "Lidkoeb-Guest", "name": "Lidk\u00f8b", "opening_hours": "16:00-02:00; Su 20:00-02:00", "phone": "+45 33112010", "ref:DK:cvr": "33955820", "ref:DK:cvr:pnummer": "1017162396", "website": "http://lidkoeb.dk/"}}]}