{"version": 0.6, "generator": "Overpass API 0.7.57.2 48842a1b", "osm3s": {"timestamp_osm_base": "2022-05-16T13:05:54Z", "copyright": "The data included in this document is from www.openstreetmap.org. The data is made available under ODbL."}, "elements": [{"type": "node", "id": 279697161, "lat": 55.7047957, "lon": 12.5619073}, {"type": "node", "id": 281998525, "lat": 55.6864556, "lon": 12.5579695, "tags": {"amenity": "bar", "fvst:navnelbnr": "567872", "internet_access": "wlan", "name": "Bl\u00e5g\u00e5rds Apotek", "opening_hours": "Mo-Th 14:00-02:00, Fr-Su 12:00-02:00", "ref:DK:cvr": "31896738", "ref:DK:cvr:pnummer": "1014980128", "website": "http://kroteket.dk/"}}, {"type": "node", "id": 427561448, "lat": 55.7019604, "lon": 12.5583462}, {"type": "node", "id": 427561450, "lat": 55.7019469, "lon": 12.5588374}, {"type": "node", "id": 427561453, "lat": 55.702077, "lon": 12.5584797}, {"type": "node", "id": 664252429, "lat": 55.6979594, "lon": 12.5449822, "tags": {"amenity": "bar", "check_date": "2020-12-17", "name": "Karrusellen", "opening_hours": "09:00-02:00", "smoking": "yes"}}, {"type": "node", "id": 664252431, "lat": 55.6999384, "lon": 12.5467477, "tags": {"amenity": "bar", "fvst:navnelbnr": "734612", "name": "Det Gamle Sted", "opening_hours:signed": "no", "phone": "+45 35826224", "ref:DK:cvr": "34272778", "smoking": "yes", "website": "https://cafe-det-gamle-sted.business.site/"}}, {"type": "node", "id": 704974846, "lat": 55.6864665, "lon": 12.5500587, "tags": {"amenity": "bar", "fvst:navnelbnr": "577983", "name": "Tjili Pop 2", "opening_hours": "Su,Mo 09:00-01:00, Tu,We 09:00-02:00, Th 09:00-03:00, Fr,Sa 09:00-04:00", "ref:DK:cvr": "29550964", "ref:DK:cvr:pnummer": "1004630426", "website": "https://www.tjili.dk/", "wheelchair": "no", "wikidata": "Q18552345"}}, {"type": "node", "id": 978057337, "lat": 55.6837431, "lon": 12.56518, "tags": {"amenity": "bar", "fvst:navnelbnr": "114549", "name": "Bibendum", "opening_hours": "Mo-Th 17:00-23:00; Fr-Sa 16:00-23:00; Su off", "opening_hours:kitchen": "16:00-22:00; Su", "phone": "+45 33330774", "ref:DK:cvr": "26925142", "ref:DK:cvr:pnummer": "1009597197", "website": "https://bibendum.dk/", "wheelchair": "no"}}, {"type": "node", "id": 1029964787, "lat": 55.7048538, "lon": 12.5620603}, {"type": "node", "id": 1029964797, "lat": 55.7046744, "lon": 12.5620736}, {"type": "node", "id": 1029964825, "lat": 55.7048358, "lon": 12.5620878}, {"type": "node", "id": 1029964828, "lat": 55.7046759, "lon": 12.5620054}, {"type": "node", "id": 1029964833, "lat": 55.704754, "lon": 12.5619073}, {"type": "node", "id": 1029964860, "lat": 55.7047385, "lon": 12.5619237}, {"type": "node", "id": 1029964887, "lat": 55.7047726, "lon": 12.5618964}, {"type": "node", "id": 1029964889, "lat": 55.7048577, "lon": 12.5619132}, {"type": "node", "id": 1029964895, "lat": 55.7047159, "lon": 12.562008}, {"type": "node", "id": 1029964898, "lat": 55.7047196, "lon": 12.5619793}, {"type": "node", "id": 1029964927, "lat": 55.7047961, "lon": 12.5618937}, {"type": "node", "id": 1029964930, "lat": 55.7047268, "lon": 12.5619502}, {"type": "node", "id": 1029964937, "lat": 55.7048477, "lon": 12.5620802}, {"type": "node", "id": 1200013193, "lat": 55.6958705, "lon": 12.5444608, "tags": {"amenity": "bar", "check_date": "2020-12-09", "name": "VinBaren", "toilets:wheelchair": "no", "wheelchair": "no"}}, {"type": "node", "id": 1200105789, "lat": 55.6880152, "lon": 12.5606456, "tags": {"amenity": "bar", "email": "cocktail@kassen.dk", "fvst:navnelbnr": "115544", "name": "Kassen", "opening_hours": "We 20:00-02:00; Th 20:00-03:00; Fr 16:00-04:00; Sa 20:00-04:00", "phone": "+4542572200", "ref:DK:cvr": "30987578", "ref:DK:cvr:pnummer": "1013740387", "website": "http://kassen.dk", "wheelchair": "limited"}}, {"type": "node", "id": 1305262264, "lat": 55.6876448, "lon": 12.5594632, "tags": {"amenity": "bar", "check_date": "2020-12-16", "diet:vegan": "yes", "diet:vegetarian": "yes", "name": "Harbo Bar", "opening_hours": "Mo-Th 08:30-00:00, Fr 08:30-02:00, Sa 09:30-02:00, Su 09:30-23:00"}}, {"type": "node", "id": 1462189989, "lat": 55.6845001, "lon": 12.5674404, "tags": {"amenity": "bar", "check_date": "2020-12-15", "name": "Funchs Vinstue", "phone": "+45 33115445", "smoking": "yes", "website": "https://www.funchs55.com/"}}, {"type": "node", "id": 1462221515, "lat": 55.6839289, "lon": 12.5684807, "tags": {"amenity": "bar", "fvst:name": "Venato Funchs", "fvst:navnelbnr": "755637", "name": "Jagtstuen", "ref:DK:cvr": "38737635", "smoking": "yes", "wheelchair": "no"}}, {"type": "node", "id": 1473047867, "lat": 55.6991351, "lon": 12.5539198, "tags": {"alt_name": "Tagensborg Bodega", "amenity": "bar", "fvst:navnelbnr": "717224", "name": "Tagensborg", "opening_hours": "Mo-We 12:00-24:00, Th 12:00-03:00, Fr,Sa 12:00-05:00, Su 12:00-22:00", "ref:DK:cvr": "36975210", "wheelchair": "no"}}, {"type": "node", "id": 1584391960, "lat": 55.6972572, "lon": 12.544631, "tags": {"alt_name": "Dispensary Whisky & Beer", "amenity": "bar", "check_date": "2020-12-15", "fvst:navnelbnr": "708014", "name": "Dispensary", "ref:DK:cvr": "38223208", "source": "https://www.openstreetmap.org/note/1474593", "wheelchair": "limited"}}, {"type": "node", "id": 1591124412, "lat": 55.682421, "lon": 12.571505, "tags": {"amenity": "bar", "fvst:navnelbnr": "551146", "name": "N\u00f8rreport Bodega", "ref:DK:cvr": "35654305", "ref:DK:cvr:pnummer": "1019100231"}}, {"type": "node", "id": 1605261363, "lat": 55.7038318, "lon": 12.5569429}, {"type": "node", "id": 1605261367, "lat": 55.7038933, "lon": 12.5571326}, {"type": "node", "id": 1605261387, "lat": 55.7038957, "lon": 12.5568229}, {"type": "node", "id": 1605261391, "lat": 55.7039805, "lon": 12.5571064}, {"type": "node", "id": 1775543925, "lat": 55.6901037, "lon": 12.5624942, "tags": {"amenity": "bar", "fvst:name": "THE BARKING DOG TRADING COMPANY", "fvst:navnelbnr": "509410", "name": "The Barking Dog", "opening_hours": "Su 16:00-24:00; Tu-Th 16:00-24:00, Fr-Sa 16:00-02:00", "phone": "+45 35361600", "ref:DK:cvr": "33779518", "ref:DK:cvr:pnummer": "1016978678", "source": "survey", "website": "http://www.thebarkingdog.dk/"}}, {"type": "node", "id": 1778854834, "lat": 55.6891027, "lon": 12.5624146, "tags": {"amenity": "bar", "fvst:navnelbnr": "713399", "name": "Kind of Blue", "opening_hours": "Mo-We 16:00-24:00, Th-Sa 16:00-02:00, Su off", "ref:DK:cvr": "37812609", "ref:DK:cvr:pnummer": "1021526084", "source": "survey", "website": "https://www.kindofblue.dk/", "wheelchair": "no"}}, {"type": "node", "id": 1828989455, "lat": 55.693679, "lon": 12.5427877, "tags": {"alt_name": "Terroiristen vinbar", "amenity": "bar", "fvst:navnelbnr": "118574", "name": "Terroiristen", "opening_hours": "Tu-Th 12:00-18:00; Fr 12:00-19:00; Sa 11:00-18:00", "ref:DK:cvr": "31052262", "ref:DK:cvr:pnummer": "1014685169", "website": "https://www.terroiristen.dk/", "wheelchair": "no"}}, {"type": "node", "id": 2008179830, "lat": 55.6859481, "lon": 12.5523945, "tags": {"amenity": "bar", "fvst:navnelbnr": "509492", "name": "Dupong", "outdoor_seating": "no", "ref:DK:cvr": "33864922", "ref:DK:cvr:pnummer": "1017038652", "smoking": "no"}}, {"type": "node", "id": 2014805166, "lat": 55.6858796, "lon": 12.5523207, "tags": {"alt_name": "\u00d8lsnedkernes Klub Bar", "amenity": "bar", "contact:facebook": "https://www.facebook.com/olsnedkeren/", "contact:instagram": "https://www.instagram.com/olsnedkeren/", "drink:beer": "served", "email": "baren@olsnedkeren.dk", "fvst:navnelbnr": "505533", "min_age": "18", "name": "\u00d8lsnedkeren", "opening_hours": "Mo-We 14:00-24:00, Th-Sa 14:00-02:00", "outdoor_seating": "no", "ref:DK:cvr": "33276249", "ref:DK:cvr:pnummer": "1016491892", "website": "https://olsnedkeren.dk/", "wheelchair": "limited"}}, {"type": "node", "id": 2036051372, "lat": 55.6818289, "lon": 12.5633186, "tags": {"alt_name": "Smuggler Imports", "amenity": "bar", "fvst:navnelbnr": "761398", "internet_access": "wlan", "name": "Gorki", "opening_hours": "Tu-Sa 15:00-24:00", "phone": "+45 40562193", "product": "beer", "ref:DK:cvr": "38904205", "shop": "alcohol", "website": "http://www.smuggler.dk/", "wheelchair": "no"}}, {"type": "node", "id": 2165235074, "lat": 55.681795, "lon": 12.5709215, "tags": {"amenity": "bar", "fvst:name": "MC KO APS", "fvst:navnelbnr": "576972", "name": "The Globe", "ref:DK:cvr": "20042877", "ref:DK:cvr:pnummer": "1004279501", "website": "https://www.the-globe.dk/"}}, {"type": "node", "id": 2229062918, "lat": 55.6946671, "lon": 12.5432048, "tags": {"amenity": "bar", "food": "yes", "fvst:navnelbnr": "522017", "internet_access": "wlan", "internet_access:fee": "no", "internet_access:ssid": "Mikkeller_Friends", "name": "Mikkeller & Friends", "opening_hours": "Fr-Sa 12:00-24:00; Su 12:00-22:00; Mo-Th 14:00-24:00", "phone": "+45 35 83 10 20", "ref:DK:cvr": "34895023", "ref:DK:cvr:pnummer": "1018153633", "website": "https://mikkeller.com/locations/mikkeller-and-friends", "wheelchair": "no"}}, {"type": "node", "id": 3372385621, "lat": 55.6846268, "lon": 12.5675944, "tags": {"alt_name": "Barkowski Bar", "amenity": "bar", "check_date": "2020-12-15", "fvst:navnelbnr": "521282", "name": "Barkowski", "opening_hours": "Tu-We 16:00-24:00, Th 14:00-02:00, Fr 14:00-05:00, Sa 13:00-05:00, Su 14:00-02:00", "phone": "+45 30 66 85 34", "ref:DK:cvr": "34904693", "ref:DK:cvr:pnummer": "1018195212", "website": "https://barkowskibar.dk/"}}, {"type": "node", "id": 3473014569, "lat": 55.6876177, "lon": 12.5469304, "tags": {"amenity": "bar", "check_date": "2020-12-13", "drink:beer": "yes", "name": "K\u00f8lsters Tolv Haner", "name:es": "K\u00f8lsters Tolv Haner", "opening_hours": "Mo-Su 15:00-24:00", "phone": "+45 32209484", "wheelchair": "no"}}, {"type": "node", "id": 3656367927, "lat": 55.701174, "lon": 12.551194, "tags": {"amenity": "bar", "fvst:navnelbnr": "715239", "name": "Kl\u00f8r Dame", "opening_hours": "Mo-Su 09:00-24:00", "outdoor_seating": "yes", "ref:DK:cvr": "30623126", "ref:DK:cvr:pnummer": "1018356356", "smoking": "yes", "wheelchair": "limited"}}, {"type": "node", "id": 4007452347, "lat": 55.6878755, "lon": 12.5702372, "tags": {"access": "private", "amenity": "bar", "description": "studentercafe", "name": "Jacques D.", "ref:DK:cvr": "17331531", "website": "http://jacquesd.dk/"}}, {"type": "node", "id": 4007924197, "lat": 55.6875478, "lon": 12.5470834, "tags": {"amenity": "bar", "fvst:navnelbnr": "721138", "name": "Tolv Haner", "opening_hours": "Fr,Sa 14:00-01:00, Mo-Th 15:00-24:00, Su 14:00-22:00", "ref:DK:cvr": "38749862", "ref:DK:cvr:pnummer": "1022585289", "wheelchair": "no"}}, {"type": "node", "id": 4170928389, "lat": 55.6983406, "lon": 12.5503495, "tags": {"amenity": "bar", "fvst:name": "Mimers", "fvst:navnelbnr": "720541", "name": "Mimers Bodega", "opening_hours": "Mo-We 12:00-22:00; Th-Fr 12:00-24:00; Sa 11:00-24:00; Su 11:00-22:00", "phone": "+45 35823868", "ref:DK:cvr": "24994740", "wheelchair": "limited"}}, {"type": "node", "id": 4328366224, "lat": 55.6885594, "lon": 12.5621783, "tags": {"amenity": "bar", "fvst:navnelbnr": "577195", "name": "LuLu", "opening_hours": "16:00-24:00, Fr-Sa 16:00-02:00", "phone": "+45 31905293", "ref:DK:cvr": "36926333", "ref:DK:cvr:pnummer": "1020495282", "website": "http://luluravnsborggade.dk/"}}, {"type": "node", "id": 4332887875, "lat": 55.7018848, "lon": 12.5587662}, {"type": "node", "id": 4332887876, "lat": 55.7018937, "lon": 12.5586717}, {"type": "node", "id": 4332887877, "lat": 55.7019116, "lon": 12.5586923}, {"type": "node", "id": 4332887878, "lat": 55.7019346, "lon": 12.5585591}, {"type": "node", "id": 4333917673, "lat": 55.7033623, "lon": 12.5717639, "tags": {"amenity": "bar", "fvst:navnelbnr": "660853", "name": "Parken Bar 7", "operator": "Levy Restaurants", "ref:DK:cvr": "37777005", "ref:DK:cvr:pnummer": "1022278327"}}, {"type": "node", "id": 4337859993, "lat": 55.6921663, "lon": 12.5561981, "tags": {"amenity": "bar", "internet_access": "wlan", "internet_access:ssid": "tapperietbrus", "microbrewery": "yes", "name": "Brus", "phone": "+45 75222200", "website": "https://tapperietbrus.dk/", "wheelchair": "yes"}}, {"type": "node", "id": 4340421686, "lat": 55.6938765, "lon": 12.5610607, "tags": {"amenity": "bar", "fvst:name": "Caf\u00e9 Stadion 2019", "fvst:navnelbnr": "903084", "name": "Cafe Stadion", "phone": "+45 35370656", "ref:DK:cvr": "40290818", "ref:DK:cvr:pnummer": "1024443961"}}, {"type": "node", "id": 4340872469, "lat": 55.7018981, "lon": 12.5585174}, {"type": "node", "id": 4387037489, "lat": 55.7009477, "lon": 12.53982, "tags": {"amenity": "bar", "fvst:navnelbnr": "111198", "name": "Hvepsereden", "ref:DK:cvr": "11750540", "ref:DK:cvr:pnummer": "1000269411"}}, {"type": "node", "id": 4387720611, "lat": 55.6869467, "lon": 12.5594593, "tags": {"amenity": "bar", "fvst:name": "Vinhanen S.M.B.A.", "fvst:navnelbnr": "523380", "name": "Vinhanen", "ref:DK:cvr": "35039244", "ref:DK:cvr:pnummer": "1018260383"}}, {"type": "node", "id": 4402639618, "lat": 55.687061, "lon": 12.549315, "tags": {"amenity": "bar", "fvst:navnelbnr": "564445", "name": "Kocktails", "ref:DK:cvr": "36543868", "ref:DK:cvr:pnummer": "1020163239", "website": "http://kocktails.dk/"}}, {"type": "node", "id": 4489479205, "lat": 55.680944, "lon": 12.571343, "tags": {"amenity": "bar", "fvst:navnelbnr": "662261", "name": "Boulebar Sankt Petri", "opening_hours": "15:00-23:00; Th 15:00-24:00; Fr 11:00-24:00; Sa 10:00-24:00; Su 10:00-23:00", "phone": "+45 82820800", "pitch": "boules", "ref:DK:cvr": "37452939", "ref:DK:cvr:pnummer": "1021592613", "toilets:wheelchair": "yes", "website": "https://www.boulebar.dk/", "wheelchair": "yes"}}, {"type": "node", "id": 4489814136, "lat": 55.703247, "lon": 12.5716911, "tags": {"amenity": "bar", "fvst:name": "Air Group Restaurants Parken Bar 6", "fvst:navnelbnr": "660851", "name": "Bar 6", "ref:DK:cvr": "37777005", "ref:DK:cvr:pnummer": "1022278327"}}, {"type": "node", "id": 4516721448, "lat": 55.6913826, "lon": 12.5446425, "tags": {"amenity": "bar", "fvst:navnelbnr": "123647", "name": "Kronborggade 3", "opening_hours": "Mo-Sa 16:00-22:00", "ref:DK:cvr": "33305427", "ref:DK:cvr:pnummer": "1016548940"}}, {"type": "node", "id": 4723359794, "lat": 55.6902991, "lon": 12.5595621, "tags": {"amenity": "bar", "fvst:navnelbnr": "112070", "name": "Osborne", "ref:DK:cvr": "17581589", "ref:DK:cvr:pnummer": "1001317132"}}, {"type": "node", "id": 4736814542, "lat": 55.68475, "lon": 12.55307, "tags": {"amenity": "bar", "drink:beer": "served", "fvst:name": "Himmeriget", "fvst:navnelbnr": "574675", "name": "Himmerriget", "opening_hours": "Mo-Sa 15:00-02:00, Su 15:00-24:00", "ref:DK:cvr": "35859659", "ref:DK:cvr:pnummer": "1020227016", "website": "http://www.himmeriget.dk/", "wheelchair": "yes"}}, {"type": "node", "id": 4736814543, "lat": 55.6960863, "lon": 12.5563343, "tags": {"alt_name": "Le Pinard", "amenity": "bar", "fvst:navnelbnr": "119746", "name": "Sabot\u00f8ren", "ref:DK:cvr": "30890094", "ref:DK:cvr:pnummer": "1014528101", "wheelchair": "limited"}}, {"type": "node", "id": 4819022400, "lat": 55.7065226, "lon": 12.5339291, "tags": {"amenity": "bar", "fvst:navnelbnr": "715860", "name": "Nordvest \u00d8lbar", "opening_hours": "Tu,Th,Sa 17:00-24:00; Su,Mo off; Fr 15:00-24:00", "ref:DK:cvr": "32996477", "ref:DK:cvr:pnummer": "1021711167", "wheelchair": "no"}}, {"type": "node", "id": 4878969893, "lat": 55.6820368, "lon": 12.5711571, "tags": {"amenity": "bar", "fvst:navnelbnr": "515809", "name": "Rhino Bar", "ref:DK:cvr": "33582676", "ref:DK:cvr:pnummer": "1016832266", "source": "Kaart Ground Survey 2017", "wheelchair": "no"}}, {"type": "node", "id": 4886334451, "lat": 55.6866636, "lon": 12.5321631, "tags": {"amenity": "bar", "check_date": "2021-10-29", "fvst:navnelbnr": "634370", "name": "Alhambra Pub", "ref:DK:cvr": "41635223", "ref:DK:cvr:pnummer": "1026220374", "source": "Kaart Ground Survey 2017"}}, {"type": "node", "id": 4888404365, "lat": 55.6903189, "lon": 12.5720729, "tags": {"amenity": "bar", "fvst:navnelbnr": "714724", "name": "S\u00f8hesten", "outdoor_seating": "no", "ref:DK:cvr": "36444851", "ref:DK:cvr:pnummer": "1020427082", "website": "http://soehestenbar.dk/"}}, {"type": "node", "id": 4949586070, "lat": 55.6814236, "lon": 12.5712927, "tags": {"amenity": "bar", "fvst:navnelbnr": "709814", "name": "No Stress Bar DK", "ref:DK:cvr": "38517511", "ref:DK:cvr:pnummer": "1022304018", "website": "http://www.nostressbar.dk/"}}, {"type": "node", "id": 5017934280, "lat": 55.6841716, "lon": 12.5430347, "tags": {"amenity": "bar", "fvst:navnelbnr": "710474", "name": "Gensyn", "ref:DK:cvr": "38327429", "ref:DK:cvr:pnummer": "1022087831"}}, {"type": "node", "id": 5110956545, "lat": 55.6835862, "lon": 12.5702644, "tags": {"amenity": "bar", "fvst:navnelbnr": "669464", "name": "Bootleggers", "ref:DK:cvr": "35644806", "ref:DK:cvr:pnummer": "1019322781"}}, {"type": "node", "id": 5139921309, "lat": 55.6851005, "lon": 12.5660795, "tags": {"access:covid19": "no", "amenity": "bar", "branch": "Vendersgade", "fvst:navnelbnr": "540465", "name": "Mikropolis", "ref:DK:cvr": "25105583", "website": "https://mikropolis.dk/"}}, {"type": "node", "id": 5401946315, "lat": 55.6843297, "lon": 12.5728065, "tags": {"amenity": "bar", "check_date": "2020-12-09", "name": "Amager Bryghus Taproom", "shop": "brewing_supplies"}}, {"type": "node", "id": 5664307023, "lat": 55.7062905, "lon": 12.5343114, "tags": {"amenity": "bar", "fvst:navnelbnr": "119711", "name": "The Ugly Duckling Brewery", "ref:DK:cvr": "30347927", "ref:DK:cvr:pnummer": "1013081650", "toilets:wheelchair": "yes", "website": "https://www.uglyduckbrewing.dk/tribeca-copenhagen", "wheelchair": "limited"}}, {"type": "node", "id": 5741803461, "lat": 55.6905596, "lon": 12.5554085, "tags": {"amenity": "bar", "drink:wine": "served", "fvst:navnelbnr": "720310", "name": "Pompette", "phone": "+45 53387888", "ref:DK:cvr": "38987917", "ref:DK:cvr:pnummer": "1022903221", "website": "https://shop.pompette.dk/"}}, {"type": "node", "id": 5786719592, "lat": 55.6877519, "lon": 12.5596089, "tags": {"amenity": "bar", "brand": "K\u00f8benhavn", "fvst:navnelbnr": "524351", "name": "Escobar", "outdoor_seating": "yes", "ref:DK:cvr": "31271274", "smoking": "outside"}}, {"type": "node", "id": 5840032285, "lat": 55.6883505, "lon": 12.561933, "tags": {"amenity": "bar", "bar": "winebar", "drink:wine": "served", "fvst:name": "R\u00f8dder & Vinbar", "fvst:navnelbnr": "749546", "name": "R\u00f8dder & Vin", "ref:DK:cvr": "38513141", "website": "https://rodderogvin.dk/"}}, {"type": "node", "id": 5914568859, "lat": 55.7019255, "lon": 12.5584422, "tags": {"entrance": "main"}}, {"type": "node", "id": 5928394990, "lat": 55.702241, "lon": 12.527665, "tags": {"amenity": "bar", "fvst:navnelbnr": "116423", "name": "M\u00e5gekroen", "ref:DK:cvr": "32769535", "ref:DK:cvr:pnummer": "1016015144"}}, {"type": "node", "id": 5978840363, "lat": 55.6886272, "lon": 12.5546848, "tags": {"amenity": "bar", "brewery": "lambic;belgian", "dog": "yes", "fvst:navnelbnr": "768570", "name": "1420", "opening_hours": "Mo-Su 14:00-24:00", "ref:DK:cvr": "39367815", "ref:DK:cvr:pnummer": "1023387235"}}, {"type": "node", "id": 6029934580, "lat": 55.690773, "lon": 12.5445454, "tags": {"amenity": "bar", "cuisine": "pub", "email": "skovbaren@gmail.com", "fvst:navnelbnr": "758303", "internet_access": "wlan", "internet_access:fee": "no", "internet_access:ssid": "Skovbar", "name": "Skovbar", "opening_hours": "Tu-Th 16:00-24:00, Fr-Sa 15:00-24:00", "outdoor_seating": "yes", "ref:DK:cvr": "39704420", "ref:DK:cvr:pnummer": "1023772201", "smoking": "outside"}}, {"type": "node", "id": 6695972753, "lat": 55.706478, "lon": 12.537079, "tags": {"amenity": "bar", "fvst:navnelbnr": "804940", "name": "\u00c5benbar", "opening_hours": "Su 09:00-20:00, Mo-Tu 13:00-22:00; We-Th 13:00-24:00, Fr 13:00-02:00; Sa 09:00-02:00", "ref:DK:cvr": "39969386", "ref:DK:cvr:pnummer": "1024072270", "smoking": "outside", "website": "http://aabenbar.dk/"}}, {"type": "node", "id": 6699329871, "lat": 55.684145, "lon": 12.550991, "tags": {"amenity": "bar", "fvst:fixme": "fvst position missing, fixed from overpassturbo/osak", "fvst:navnelbnr": "796846", "name": "Gamble", "phone": "+45 26220575", "ref:DK:cvr": "39332094", "ref:DK:cvr:pnummer": "1023345826", "website": "http://gamble-cph.dk/"}}, {"type": "node", "id": 6763361857, "lat": 55.684295, "lon": 12.5727426, "tags": {"amenity": "bar", "fvst:navnelbnr": "749438", "name": "FoxN Friends", "phone": "+45 61783886", "ref:DK:cvr": "39377810", "ref:DK:cvr:pnummer": "1023397516"}}, {"type": "node", "id": 7061980768, "lat": 55.6889032, "lon": 12.559758, "tags": {"amenity": "bar", "description": "BAR \u2022 ARCADE \u2022 PINBALL", "fvst:navnelbnr": "778746", "name": "Bip Bip Bar", "opening_hours": "Tu 15:00-22:00; We 15:00-24:00; Th 15:00-02:00; Fr 15:00-04:00; Sa 12:00-04:00", "ref:DK:cvr": "39121174", "ref:DK:cvr:pnummer": "1023074288", "website": "http://bipbipbar.dk/"}}, {"type": "node", "id": 7296739573, "lat": 55.6979088, "lon": 12.5354754, "tags": {"amenity": "bar", "fvst:navnelbnr": "1220561", "name": "Glentekroen", "ref:DK:cvr": "42969451", "ref:DK:cvr:pnummer": "1027894697"}}, {"type": "node", "id": 7577988234, "lat": 55.6823112, "lon": 12.5349285, "tags": {"amenity": "bar", "fvst:navnelbnr": "560250", "name": "Vinstuen 29", "opening_hours:signed": "no", "ref:DK:cvr": "34205426", "ref:DK:cvr:pnummer": "1017388076"}}, {"type": "node", "id": 7741931221, "lat": 55.684003, "lon": 12.567595, "tags": {"amenity": "bar", "drink:wine": "served", "fvst:fixme": "fvst position missing, fixed from overpassturbo/osak", "fvst:navnelbnr": "943976", "name": "Vinum Historia", "opening_hours": "12:00-24:00", "ref:DK:cvr": "41284501", "ref:DK:cvr:pnummer": "1025725510", "website": "https://www.vinumhistoria.com/"}}, {"type": "node", "id": 8109952243, "lat": 55.6990534, "lon": 12.5360266, "tags": {"amenity": "bar", "fvst:navnelbnr": "764349", "name": "Mascot Bodega", "ref:DK:cvr": "13114951", "wheelchair": "limited"}}, {"type": "node", "id": 8109952245, "lat": 55.6991981, "lon": 12.5569106, "tags": {"amenity": "bar", "branch": "Studenterhuset ved Biocenter K\u00f8benhavn", "fvst:navnelbnr": "524194", "name": "mBAR", "ref:DK:cvr": "32484360"}}, {"type": "node", "id": 8110000745, "lat": 55.7033753, "lon": 12.5567481, "tags": {"access": "private", "amenity": "bar", "check_date": "2021-11-08", "fvst:navnelbnr": "127413", "name": "Studenterhuset Campus Sigurdsgade", "ref:DK:cvr": "33548060"}}, {"type": "node", "id": 8110000748, "lat": 55.691821, "lon": 12.555717, "tags": {"amenity": "bar", "fvst:navnelbnr": "747074", "microbrewery": "yes", "name": "Brus Bar", "ref:DK:cvr": "37222852", "website": "https://tapperietbrus.dk/bar/"}}, {"type": "node", "id": 8112535202, "lat": 55.703523, "lon": 12.5718077, "tags": {"amenity": "bar", "fvst:name": "Air Group Restaurants Parken \u00d8l & Grillboder D2.1", "fvst:navnelbnr": "661023", "name": "\u00d8l & Grillboder D2.1", "ref:DK:cvr": "37777005"}}, {"type": "node", "id": 8117602447, "lat": 55.687525, "lon": 12.559342, "tags": {"amenity": "bar", "fvst:fixme": "fvst position missing, fixed from overpassturbo/osak", "fvst:navnelbnr": "954601", "name": "Barbarian", "ref:DK:cvr": "41100729", "website": "https://barberianscph.com/"}}, {"type": "node", "id": 8124919085, "lat": 55.702123, "lon": 12.5377583, "tags": {"amenity": "bar", "branch": "Copenhagen", "fvst:navnelbnr": "921708", "name": "Urban Camper", "ref:DK:cvr": "40441123", "website": "https://www.urbancamper.dk/bar-separator/bar"}}, {"type": "node", "id": 8124919086, "lat": 55.702354, "lon": 12.533235, "tags": {"amenity": "bar", "fvst:navnelbnr": "559953", "name": "Cafe Palermo", "ref:DK:cvr": "36432470"}}, {"type": "node", "id": 8124919089, "lat": 55.7047135, "lon": 12.5264504, "tags": {"amenity": "bar", "fvst:navnelbnr": "112511", "name": "Caf\u00e9 Fuglereden", "phone": "+45 38332026", "ref:DK:cvr": "25832299", "website": "https://cafefuglereden.dk/"}}, {"type": "node", "id": 8124919091, "lat": 55.7022, "lon": 12.550238, "tags": {"amenity": "bar", "fvst:fixme": "fvst position missing, fixed from overpassturbo/osak", "fvst:navnelbnr": "129887", "name": "Caf\u00e9 Coma", "ref:DK:cvr": "34100764"}}, {"type": "node", "id": 8124949018, "lat": 55.689782, "lon": 12.560259, "tags": {"amenity": "bar", "fvst:navnelbnr": "921488", "name": "L\u00c9ANOWSKI BAR", "ref:DK:cvr": "40432728"}}, {"type": "node", "id": 8124949019, "lat": 55.688107, "lon": 12.561284, "tags": {"amenity": "bar", "fvst:navnelbnr": "117693", "name": "N\u00f8rrebro Teater Bar", "ref:DK:cvr": "16148245"}}, {"type": "node", "id": 8124949020, "lat": 55.6818909, "lon": 12.5592724, "tags": {"amenity": "bar", "fvst:navnelbnr": "905878", "name": "GL24 S\u00f8pavillonen", "ref:DK:cvr": "39911558"}}, {"type": "node", "id": 8130361801, "lat": 55.70631, "lon": 12.539166, "tags": {"access": "private", "amenity": "bar", "fvst:navnelbnr": "706949", "name": "Moonbar", "ref:DK:cvr": "38321064"}}, {"type": "node", "id": 8132048131, "lat": 55.697835, "lon": 12.544911, "tags": {"amenity": "bar", "fvst:name": "RESTAURATIONSANPARTSELSKABET RYLA Karusellen", "fvst:navnelbnr": "112137", "name": "Karusellen", "ref:DK:cvr": "18125773"}}, {"type": "node", "id": 8133042254, "lat": 55.687938, "lon": 12.554122, "tags": {"amenity": "bar", "fvst:navnelbnr": "516858", "name": "Trabi Bar", "ref:DK:cvr": "34623287", "ref:DK:cvr:pnummer": "1017835358"}}, {"type": "node", "id": 8137334217, "lat": 55.684718, "lon": 12.564939, "tags": {"amenity": "bar", "fvst:navnelbnr": "113452", "name": "Hotel Kong Arthur Baren", "ref:DK:cvr": "75612419", "ref:DK:cvr:pnummer": "1002465170", "website": "https://www.arthurhotels.dk/dk/hotel-kong-arthur/mad-drikke/baren/"}}, {"type": "node", "id": 8138045851, "lat": 55.6871892, "lon": 12.5404647, "tags": {"amenity": "bar", "fvst:navnelbnr": "558279", "name": "Frb \u00d8lbar", "opening_hours": "Mo-We 14:00-01:00, Th 14:00-02:00, Fr,Sa 12:00-04:00, Su 12:00-24:00", "ref:DK:cvr": "35519270", "ref:DK:cvr:pnummer": "1018843702"}}, {"type": "node", "id": 8138045852, "lat": 55.6862958, "lon": 12.5400653, "tags": {"amenity": "bar", "fvst:navnelbnr": "906091", "name": "Caf\u00e9 Francke", "opening_hours": "Mo-We 13:00-24:00, Th-Sa 13:00-02:00, Su 13:00-20:00", "phone": "+45 35364052", "ref:DK:cvr": "38192183", "ref:DK:cvr:pnummer": "1021936002"}}, {"type": "node", "id": 8142995803, "lat": 55.704551, "lon": 12.532208, "tags": {"amenity": "bar", "fvst:name": "SJAKATIN", "fvst:navnelbnr": "568515", "name": "Glashuset", "ref:DK:cvr": "36710128", "ref:DK:cvr:pnummer": "1020309136", "smoking": "yes"}}, {"type": "node", "id": 8144238925, "lat": 55.681637, "lon": 12.53076, "tags": {"access": "private", "amenity": "bar", "fvst:navnelbnr": "110827", "name": "Caf\u00e9 Nexus", "ref:DK:cvr": "10020867", "ref:DK:cvr:pnummer": "1007443257", "website": "https://www.cbsstudents.dk/cafe-nexus"}}, {"type": "node", "id": 8197943616, "lat": 55.690637, "lon": 12.558319, "tags": {"access:covid19": "no", "amenity": "bar", "drink:cocktail": "served", "fvst:fixme": "fvst position missing, fixed from overpassturbo/osak", "fvst:navnelbnr": "962317", "name": "The Flatiron", "phone": "+45 35245200", "ref:DK:cvr": "40694390", "ref:DK:cvr:pnummer": "1024940531", "website": "https://www.theflatiron.dk/"}}, {"type": "node", "id": 8204073348, "lat": 55.687674, "lon": 12.559516, "tags": {"amenity": "bar", "fvst:fixme": "fvst position missing, fixed from overpassturbo/osak", "fvst:navnelbnr": "955713", "name": "Torobar", "opening_hours": "11:00-24:00; Fr-Sa 11:00-02:00", "ref:DK:cvr": "39516942", "ref:DK:cvr:pnummer": "1023557505", "website": "http://torobar.dk/"}}, {"type": "node", "id": 8537212688, "lat": 55.6933556, "lon": 12.5474989, "tags": {"amenity": "bar", "name": "Liquid"}}, {"type": "node", "id": 8706595479, "lat": 55.6895374, "lon": 12.5581541, "tags": {"amenity": "bar", "facebook": "Vivant CPH", "fvst:navnelbnr": "985777", "instagram": "vivant_cph", "name": "Bar Vivant", "opening_hours": "Tu-Th 12:00-23:00; Fr, Sa 12:00-24:00", "ref:DK:cvr": "42143065", "ref:DK:cvr:pnummer": "1026948629", "shop": "wine", "website": "https://vivant.dk"}}, {"type": "node", "id": 8849254699, "lat": 55.6856548, "lon": 12.5574538, "tags": {"amenity": "bar", "drink:wine": "yes", "fvst:navnelbnr": "976202", "name": "Radical Roots", "phone": "+45 31629001", "ref:DK:cvr": "41912219", "ref:DK:cvr:pnummer": "1026548051", "shop": "alcohol", "website": "https://www.rootsvin.dk/location"}}, {"type": "node", "id": 9101761999, "lat": 55.6837353, "lon": 12.5665529, "tags": {"amenity": "bar", "fvst:navnelbnr": "983999", "name": "Censuum", "ref:DK:cvr": "42084646", "ref:DK:cvr:pnummer": "1026758293", "shop": "clothes", "website": "https://www.censuum.dk/"}}, {"type": "node", "id": 9101970216, "lat": 55.6853486, "lon": 12.5690851, "tags": {"amenity": "bar", "fvst:navnelbnr": "992941", "name": "Chums", "ref:DK:cvr": "42380156", "ref:DK:cvr:pnummer": "1027151678"}}, {"type": "node", "id": 9102016626, "lat": 55.6836454, "lon": 12.5698768, "tags": {"amenity": "bar", "description": "low-alcoholic drinks", "fvst:navnelbnr": "993911", "name": "Pavillion De Verre", "ref:DK:cvr": "39707799", "ref:DK:cvr:pnummer": "1026528891"}}, {"type": "node", "id": 9157591532, "lat": 55.6904787, "lon": 12.5603817, "tags": {"amenity": "bar", "drink:cocktails": "yes", "fvst:navnelbnr": "987582", "name": "Pulp", "ref:DK:cvr": "42224731", "ref:DK:cvr:pnummer": "1026925181"}}, {"type": "node", "id": 9173401696, "lat": 55.68407, "lon": 12.568102, "tags": {"amenity": "bar", "fvst:navnelbnr": "987197", "name": "Wiine", "ref:DK:cvr": "42269603", "ref:DK:cvr:pnummer": "1026981294"}}, {"type": "node", "id": 9210363129, "lat": 55.682334, "lon": 12.571774, "tags": {"amenity": "bar", "fvst:navnelbnr": "989121", "name": "F2", "ref:DK:cvr": "39158043", "ref:DK:cvr:pnummer": "1025252191"}}, {"type": "node", "id": 9283850285, "lat": 55.6843239, "lon": 12.563753, "tags": {"amenity": "bar", "fvst:navnelbnr": "701789", "level": "-1", "name": "VINTAGE CHAMPAGNE", "phone": "+45 71747416", "ref:DK:cvr": "36550562", "ref:DK:cvr:pnummer": "1020182179", "website": "https://www.champagnekaelderen.dk/"}}, {"type": "node", "id": 9310728701, "lat": 55.7031954, "lon": 12.5551048, "tags": {"access": "private", "alt_name": "Studenterhuset Sigurdsbar", "amenity": "bar", "fvst:navnelbnr": "927713", "name": "Studentercaf\u00e9en Sigurdsbar", "ref:DK:cvr": "42912050", "ref:DK:cvr:pnummer": "1027859999"}}, {"type": "node", "id": 9454954545, "lat": 55.6806517, "lon": 12.5337419, "tags": {"amenity": "bar", "fvst:navnelbnr": "1218264", "name": "Bootleggers", "opening_hours:signed": "no", "ref:DK:cvr": "33146973", "ref:DK:cvr:pnummer": "1027396476", "website": "https://www.bootleggers.dk/kopi-af-amager"}}, {"type": "node", "id": 9591044694, "lat": 55.6935211, "lon": 12.5338305, "tags": {"amenity": "bar", "fvst:navnelbnr": "1215551", "name": "Shaniques Hideaway", "ref:DK:cvr": "42495166", "ref:DK:cvr:pnummer": "1027299489"}}, {"type": "node", "id": 9642934828, "lat": 55.68224, "lon": 12.5725521, "tags": {"amenity": "bar", "fvst:navnelbnr": "1221485", "name": "Rosengaardens Vinstue", "opening_hours": "16:00-24:00; Fr 14:00-24:00; Sa 12:00-24:00; Su-Mo off", "phone": "+45 69692034", "ref:DK:cvr": "31625246", "ref:DK:cvr:pnummer": "1027413168", "smoking": "yes", "website": "http://rosengaardensvinstue.dk/"}}, {"type": "node", "id": 9645439911, "lat": 55.6893943, "lon": 12.555331, "tags": {"amenity": "bar", "fvst:navnelbnr": "990566", "name": "Fantom Bar", "ref:DK:cvr": "42136719", "ref:DK:cvr:pnummer": "1027176182"}}, {"type": "way", "id": 36774301, "nodes": [427561448, 5914568859, 4340872469, 4332887878, 4332887876, 4332887877, 4332887875, 427561450, 427561453, 427561448], "tags": {"access": "students", "alt_name": "Caf\u00e9en?", "amenity": "bar", "building": "yes", "fvst:name": "Foreningen til caf\u00e9drift af caf\u00e9", "fvst:navnelbnr": "118221", "name": "Caf\u00e9en p\u00e5 Naturvidenskab", "operator": "Foreningen til caf\u00e9drift af 1993 caf\u00e9", "outdoor_seating": "yes", "ref:DK:cvr": "17223801", "ref:DK:cvr:pnummer": "1001246648", "website": "https://www.cafeen.org/"}}, {"type": "way", "id": 88728055, "nodes": [1029964889, 1029964787, 1029964937, 1029964825, 1029964797, 1029964828, 1029964895, 1029964898, 1029964930, 1029964860, 1029964833, 1029964887, 1029964927, 279697161, 1029964889], "tags": {"access": "private", "amenity": "bar", "building": "yes", "building:levels": "1", "check_date": "2020-12-14", "name": "Caf\u00e9 Irgens", "operator": "Egmont H. Petersens Kollegium", "roof:material": "tar_paper", "roof:shape": "flat"}}, {"type": "way", "id": 147291402, "nodes": [1605261391, 1605261367, 1605261363, 1605261387, 1605261391], "tags": {"amenity": "bar", "building": "yes", "fvst:navnelbnr": "128268", "name": "Lumskebuksen", "ref:DK:cvr": "32681778", "ref:DK:cvr:pnummer": "1015821457", "website": "http://www.lumskebuksen.dk/", "wikimedia_commons": "File:Lumskebuksen 01.jpg"}}]}